id,lat,lon,placeCount,place,address
2,15.80012072628986,101.3069241340902,2,establishment|home_goods_store|store|point_of_interest,"225, Tambon Yang Sao, Amphoe Wichian Buri, Chang Wat Phetchabun 67130, Thailand"
3,15.80012072628986,101.44712865480426,1,establishment|store|point_of_interest,"Unnamed Road, Tambon Pong Nok, Amphoe Thep Sathit, Chang Wat Chaiyaphum 36230, Thailand"
4,15.80012072628986,101.5312513672327,1,school|establishment|point_of_interest,"Unnamed Road, Tambon Wang Takhe, Amphoe Nong Bua Rawe, Chang Wat Chaiyaphum 36250, Thailand"
5,15.80012072628986,101.58733317551832,1,school|establishment|point_of_interest,"Unnamed Road, Tambon Wang Takhe, Amphoe Nong Bua Rawe, Chang Wat Chaiyaphum 36250, Thailand"
7,15.80012072628986,101.9238240252322,6,establishment|point_of_interest|hospital,"Unnamed Road, Tambon Non Daeng, Amphoe Ban Khwao, Chang Wat Chaiyaphum 36170, Thailand"
8,15.80012072628986,101.951864929375,2,establishment|point_of_interest|hospital,"Unnamed Road, Tambon Khok Sung, Amphoe Mueang Chaiyaphum, Chang Wat Chaiyaphum 36000, Thailand"
12,15.80012072628986,102.26031487494595,6,establishment|point_of_interest|hospital,"Unnamed Road, Tambon Non Sa-at, Amphoe Khon Sawan, Chang Wat Chaiyaphum 36140, Thailand"
13,15.80012072628986,102.28835577908876,1,school|establishment|point_of_interest,"Unnamed Road, Tambon Non Sa-at, Amphoe Khon Sawan, Chang Wat Chaiyaphum 36140, Thailand"
14,15.80012072628986,102.34443758737439,2,establishment|point_of_interest|hospital,"Unnamed Road, Tambon Lahan Na, Amphoe Waeng Noi, Chang Wat Khon Kaen 40230, Thailand"
16,15.80012072628986,102.68092843708837,2,school|establishment|point_of_interest,"Unnamed Road, Tambon Sok Nok Ten, Amphoe Phon, Chang Wat Khon Kaen 40120, Thailand"
17,15.80012072628986,102.70896934123118,2,school|establishment|point_of_interest,"DPT., Tambon Nong Mek, Amphoe Nong Song Hong, Chang Wat Khon Kaen 40190, Thailand"
18,15.80012072628986,102.84917386194525,2,school|establishment|point_of_interest,"Unnamed Road, Tambon Don Du, Amphoe Nong Song Hong, Chang Wat Khon Kaen 40190, Thailand"
19,15.80012072628986,102.90525567023087,4,school|establishment|point_of_interest,"บร.5024 Tambon Don Du, Amphoe Nong Song Hong, Chang Wat Khon Kaen 40190, Thailand"
21,15.773141078919853,101.53120466731866,5,establishment|point_of_interest|hospital,"Unnamed Road, Tambon Pong Nok, Amphoe Thep Sathit, Chang Wat Chaiyaphum 36230, Thailand"
23,15.773141078919853,101.64335333934059,1,school|establishment|point_of_interest,"Unnamed Road, Tambon Wang Takhe, Amphoe Nong Bua Rawe, Chang Wat Chaiyaphum 36250, Thailand"
24,15.773141078919853,101.67139050734613,1,school|establishment|point_of_interest,"Unnamed Road, Tambon Khok Sa-at, Amphoe Nong Bua Rawe, Chang Wat Chaiyaphum 36250, Thailand"
25,15.773141078919853,101.83961351537937,2,school|establishment|point_of_interest,"Unnamed Road, Tambon Talat Raeng, Amphoe Ban Khwao, Chang Wat Chaiyaphum 36170, Thailand"
26,15.773141078919853,101.92372501939599,27,establishment|point_of_interest|hospital,"855 ม.13, ต.บ้านเขว้า อ.บ้านเขว้า จ.ชัยภูมิ, 36170 Thailand"
32,15.773141078919853,102.40035687548959,4,establishment|point_of_interest|hospital,"4029, Tambon Waeng Noi, Amphoe Waeng Noi, Chang Wat Khon Kaen 40230, Thailand"
33,15.773141078919853,102.56857988352249,5,school|establishment|point_of_interest,"Unnamed Road, Tambon Non Kha, Amphoe Phon, Chang Wat Khon Kaen 40120, Thailand"
34,15.773141078919853,102.62465421953357,5,establishment|point_of_interest|hospital,"Unnamed Road, Tambon Mueang Phon, Amphoe Phon, Chang Wat Khon Kaen 40120, Thailand"
35,15.773141078919853,102.65269138753911,3,cafe|establishment|store|point_of_interest|food,"Soi DPT., Tambon Mueang Phon, Amphoe Phon, Chang Wat Khon Kaen 40120, Thailand"
36,15.773141078919853,102.68072855554465,3,establishment|point_of_interest|hospital,"Unnamed Road, Tambon Mueang Phon, Amphoe Phon, Chang Wat Khon Kaen 40190, Thailand"
37,15.773141078919853,102.70876572355019,8,school|establishment|point_of_interest,"Unnamed Road, Tambon Han Chot, Amphoe Nong Song Hong, Chang Wat Khon Kaen 40190, Thailand"
38,15.773141078919853,102.73680289155573,9,school|establishment|point_of_interest,"Unnamed Road, Tambon Nong Mek, Amphoe Nong Song Hong, Chang Wat Khon Kaen 40190, Thailand"
39,15.773141078919853,102.84895156357766,1,school|establishment|point_of_interest,"Unnamed Road, Tambon Nong Pai Lom, Amphoe Nong Song Hong, Chang Wat Khon Kaen 40190, Thailand"
40,15.773141078919853,102.87698873158308,2,school|establishment|point_of_interest,"Unnamed Road, Tambon Nong Pai Lom, Amphoe Nong Song Hong, Chang Wat Khon Kaen 40190, Thailand"
42,15.746161431549625,101.72739213108503,1,school|establishment|point_of_interest,"Unnamed Road, Tambon Sok Pla Duk, Amphoe Nong Bua Rawe, Chang Wat Chaiyaphum 36250, Thailand"
44,15.746161431549625,101.83952588739953,1,school|establishment|point_of_interest,"Unnamed Road, Tambon Talat Raeng, Amphoe Ban Khwao, Chang Wat Chaiyaphum 36170, Thailand"
45,15.746161431549625,101.95165964371404,1,school|establishment|point_of_interest,"Unnamed Road, Tambon Chi Long, Amphoe Mueang Chaiyaphum, Chang Wat Chaiyaphum 36000, Thailand"
48,15.746161431549625,102.09182683910717,4,establishment|point_of_interest|hospital,"Unnamed Road, Amphoe Mueang Chaiyaphum, Chang Wat Chaiyaphum 36240, Thailand"
49,15.746161431549625,102.26002747357893,25,establishment|point_of_interest|hospital,"Soi Pracha Samakkhi, Tambon Kaeng Sanam Nang, Amphoe Kaeng Sanam Nang, Chang Wat Nakhon Ratchasima 30440, Thailand"
50,15.746161431549625,102.28806091265756,3,establishment|store|point_of_interest,"Unnamed Road, Tambon Kaeng Sanam Nang, Amphoe Kaeng Sanam Nang, Chang Wat Nakhon Ratchasima 30440, Thailand"
51,15.746161431549625,102.31609435173618,3,school|establishment|point_of_interest,"Unnamed Road, Tambon Non Samran, Amphoe Kaeng Sanam Nang, Chang Wat Nakhon Ratchasima 30440, Thailand"
52,15.746161431549625,102.42822810805069,8,school|establishment|point_of_interest,"Unnamed Road, Tambon Thang Khwang, Amphoe Waeng Noi, Chang Wat Khon Kaen 40230, Thailand"
53,15.746161431549625,102.62446218160107,3,establishment|store|point_of_interest,"Unnamed Road, Tambon Nong Waeng Sok Phra, Amphoe Phon, Chang Wat Khon Kaen 40120, Thailand"
54,15.746161431549625,102.6524956206797,1,school|establishment|point_of_interest,"Unnamed Road, Tambon Nong Waeng Sok Phra, Amphoe Phon, Chang Wat Khon Kaen 40120, Thailand"
55,15.746161431549625,102.70856249883695,3,school|establishment|point_of_interest,"Unnamed Road, Tambon Han Chot, Amphoe Nong Song Hong, Chang Wat Khon Kaen 40190, Thailand"
56,15.746161431549625,102.93283001146597,9,establishment|store|point_of_interest|clothing_store,"บร.5030 Tambon Don Kok, Amphoe Na Pho, Chang Wat Buri Ram 31230, Thailand"
57,15.746161431549625,102.98889688962322,3,establishment|point_of_interest|hospital,"Unnamed Road, Tambon Nong Mek, Amphoe Na Chueak, Chang Wat Maha Sarakham 44170, Thailand"
58,15.746161431549625,103.01693032870185,2,school|establishment|point_of_interest,"Unnamed Road, Tambon Na Chueak, Amphoe Na Chueak, Chang Wat Maha Sarakham 44170, Thailand"
59,15.71918178417919,101.44702238575167,1,school|establishment|point_of_interest,"Unnamed Road, Tambon Na Yang Klak, Amphoe Thep Sathit, Chang Wat Chaiyaphum 36230, Thailand"
61,15.71918178417919,101.8954978634772,2,school|establishment|point_of_interest,"Unnamed Road, Tambon Ban Khwao, Amphoe Ban Khwao, Chang Wat Chaiyaphum 36170, Thailand"
62,15.71918178417919,102.06367616762418,4,school|establishment|point_of_interest,"Moo.3, Tambon Nong Phai, Amphoe Mueang Chaiyaphum, Chaiyaphum, 36000, Thailand"
63,15.71918178417919,102.2038247544134,1,establishment|store|point_of_interest|grocery_or_supermarket|food,"Unnamed Road, Tambon Bueng Sam Rong, Amphoe Kaeng Sanam Nang, Chang Wat Nakhon Ratchasima 30440, Thailand"
64,15.71918178417919,102.51215164534972,4,school|establishment|point_of_interest,"Unnamed Road, Tambon Non Chan, Amphoe Bua Lai, Chang Wat Nakhon Ratchasima 30120, Thailand"
66,15.71918178417919,102.68032994949681,1,school|establishment|point_of_interest,"Unnamed Road, Tambon Non Phet, Amphoe Prathai, Chang Wat Nakhon Ratchasima 30180, Thailand"
68,15.71918178417919,102.8485082536439,5,school|establishment|point_of_interest,"Unnamed Road, Tambon Takua Pa, Amphoe Nong Song Hong, Chang Wat Khon Kaen 40190, Thailand"
70,15.71918178417919,102.98865684043324,2,supermarket|establishment|store|point_of_interest|grocery_or_supermarket|food,"Unnamed Road, Tambon Ban Du, Amphoe Na Pho, Chang Wat Buri Ram 31230, Thailand"
71,15.71918178417919,103.01668655779099,1,school|establishment|point_of_interest,"Unnamed Road, Tambon Nong Kung, Amphoe Na Chueak, Chang Wat Maha Sarakham 44170, Thailand"
72,15.692202136808534,101.2788310825863,7,establishment|point_of_interest|hospital,"Unnamed Road, Tambon Nam Ron, Amphoe Wichian Buri, Chang Wat Phetchabun 67130, Thailand"
74,15.692202136808534,101.72724712800209,1,school|establishment|point_of_interest,"Unnamed Road, Tambon Sok Pla Duk, Amphoe Nong Bua Rawe, Chang Wat Chaiyaphum 36250, Thailand"
76,15.692202136808534,101.86737714219453,17,establishment|point_of_interest|hospital,"เลขที่ 4/1 หมู่ที่ 4 บ้านโคกโต่งต้น, ต.หนองบัวบาน อ.จัตุรัส จ.ชัยภูมิ, 36130 Thailand"
79,15.692202136808534,102.09158516490243,10,school|establishment|point_of_interest,"Unnamed Road, Tambon Nong Phai, Amphoe Mueang Chaiyaphum, Chang Wat Chaiyaphum 36240, Thailand"
81,15.692202136808534,102.20368917625638,6,school|establishment|point_of_interest,"2160, Tambon Bueng Sam Rong, Amphoe Kaeng Sanam Nang, Chang Wat Nakhon Ratchasima 30440, Thailand"
82,15.692202136808534,102.31579318761032,4,school|establishment|point_of_interest,"Unnamed Road, Tambon Kaeng Sanam Nang, Amphoe Kaeng Sanam Nang, Chang Wat Nakhon Ratchasima 30440, Thailand"
83,15.692202136808534,102.34381919044881,8,school|establishment|point_of_interest,"Unnamed Road, Tambon Khun Thong, Amphoe Bua Yai, Chang Wat Nakhon Ratchasima 30120, Thailand"
84,15.692202136808534,102.42789719896427,2,school|establishment|point_of_interest,"Unnamed Road, Tambon Non Chan, Amphoe Bua Lai, Chang Wat Nakhon Ratchasima 30120, Thailand"
85,15.692202136808534,102.45592320180276,2,school|establishment|point_of_interest,"Unnamed Road, Tambon Non Chan, Amphoe Bua Lai, Chang Wat Nakhon Ratchasima 30120, Thailand"
86,15.692202136808534,102.48394920464125,1,school|establishment|point_of_interest,"Unnamed Road, Tambon Non Chan, Amphoe Bua Lai, Chang Wat Nakhon Ratchasima 30120, Thailand"
87,15.692202136808534,102.54000121031822,2,school|establishment|point_of_interest,"Unnamed Road, Tambon Bua Lai, Amphoe Bua Lai, Chang Wat Nakhon Ratchasima 30120, Thailand"
88,15.692202136808534,102.5960532159952,3,school|establishment|point_of_interest,"Rural Rd, Tambon Nong Wa, Amphoe Bua Lai, Chang Wat Nakhon Ratchasima 30120, Thailand"
92,15.692202136808534,102.96039125289553,9,establishment|point_of_interest|hospital,"บร.5045 Tambon Ban Du, Amphoe Na Pho, Chang Wat Buri Ram 31230, Thailand"
96,15.665222489437664,101.83926401907695,1,school|establishment|point_of_interest,"Unnamed Road, Tambon Nong Bua Ban, Amphoe Chatturat, Chang Wat Chaiyaphum 36130, Thailand"
97,15.665222489437664,101.92333090562511,5,establishment|point_of_interest|hospital,"Unnamed Road, Tambon Lum Lam Chi, Amphoe Ban Khwao, Chang Wat Chaiyaphum 36170, Thailand"
100,15.665222489437664,102.2876207473339,6,school|establishment|point_of_interest,"Unnamed Road, Tambon Bueng Phalai, Amphoe Kaeng Sanam Nang, Chang Wat Nakhon Ratchasima 30440, Thailand"
101,15.665222489437664,102.31564304284984,2,school|establishment|point_of_interest,"Unnamed Road, Tambon Huai Yang, Amphoe Bua Yai, Chang Wat Nakhon Ratchasima 30120, Thailand"
102,15.665222489437664,102.39970992939811,1,establishment|point_of_interest|hospital,"Unnamed Road, Tambon Khun Thong, Amphoe Bua Yai, Chang Wat Nakhon Ratchasima 30120, Thailand"
105,15.665222489437664,102.8200443621389,1,establishment|point_of_interest|hospital,"Unnamed Road, Tambon Dong Keng, Amphoe Nong Song Hong, Chang Wat Khon Kaen 40190, Thailand"
110,15.63824284206658,101.41889813702892,1,school|establishment|point_of_interest,"Unnamed Road, Tambon Ban Rai, Amphoe Thep Sathit, Chang Wat Chaiyaphum 36230, Thailand"
115,15.63824284206658,102.39954897554344,6,school|establishment|point_of_interest,"Unnamed Road, Tambon Dan Chang, Amphoe Bua Yai, Chang Wat Nakhon Ratchasima 30120, Thailand"
116,15.63824284206658,102.62369773863247,1,establishment|store|point_of_interest,"Unnamed Road, Tambon Han Huai Sai, Amphoe Prathai, Chang Wat Nakhon Ratchasima 30180, Thailand"
117,15.63824284206658,102.79180931094925,1,school|establishment|point_of_interest,"Unnamed Road, Tambon Thong Lang, Amphoe Ban Mai Chaiyaphot, Chang Wat Buri Ram 31120, Thailand"
118,15.63824284206658,102.8478465017215,4,school|establishment|point_of_interest,"2061, Tambon Ban Pao, Amphoe Phutthaisong, Chang Wat Buri Ram 31120, Thailand"
121,15.611263194695283,101.19474752926487,8,school|establishment|point_of_interest,"Unnamed Road, Tambon Bo Rang, Amphoe Wichian Buri, Chang Wat Phetchabun 67130, Thailand"
122,15.611263194695283,101.41886674881903,7,school|establishment|point_of_interest,"Unnamed Road, Tambon Ban Rai, Amphoe Thep Sathit, Chang Wat Chaiyaphum 36230, Thailand"
123,15.611263194695283,101.95114989526041,2,cafe|establishment|store|point_of_interest|food,"Unnamed Road, Tambon Lahan, Amphoe Chatturat, Chang Wat Chaiyaphum 36130, Thailand"
125,15.611263194695283,102.03519460259326,1,establishment|point_of_interest|hospital,"Unnamed Road, Tambon Kahat, Amphoe Noen Sa-nga, Chang Wat Chaiyaphum 36130, Thailand"
126,15.611263194695283,102.11923930992612,14,establishment|point_of_interest|hospital,"Unnamed Road, Tambon Ban Lueam, Amphoe Ban Lueam, Chang Wat Nakhon Ratchasima 30350, Thailand"
127,15.611263194695283,102.1472542123704,3,establishment|store|point_of_interest|food,"Unnamed Road, Tambon Ban Lueam, Amphoe Ban Lueam, Chang Wat Nakhon Ratchasima 30350, Thailand"
129,15.611263194695283,102.25931382214753,1,school|establishment|point_of_interest,"Unnamed Road, Tambon Nong Bua Sa-at, Amphoe Bua Yai, Chang Wat Nakhon Ratchasima 30120, Thailand"
130,15.611263194695283,102.34335852948038,1,school|establishment|point_of_interest,"106/1 หมู่ 8 Nong Bua Sa-at, Bua Yai District, Nakhon Ratchasima 30120, Thailand"
132,15.611263194695283,102.53946284659037,4,school|establishment|point_of_interest,"Unnamed Road, Tambon Sam Mueang, Amphoe Sida, Chang Wat Nakhon Ratchasima, Thailand"
134,15.611263194695283,102.59549265147871,3,school|establishment|point_of_interest,"245 หมู่ 3 บ้านหนองจะบก, ตำบลหนองตาดใหญ่ อำเภอสีดา จังหวัดนครราชสีมา, 30430 Thailand"
135,15.611263194695283,102.70755226125584,1,school|establishment|point_of_interest,"Unnamed Road, Tambon Mueang Don, Amphoe Prathai, Chang Wat Nakhon Ratchasima 30180, Thailand"
136,15.611263194695283,102.76358206614441,5,school|establishment|point_of_interest,"3, ตำบลหนองค่าย อำเภอประทาย จังหวัดนครราชสีมา, 30180 30180, Thailand"
138,15.611263194695283,102.81961187103298,10,establishment|point_of_interest|hospital,"Soi Ban Thong Lang, Tambon Thong Lang, Amphoe Ban Mai Chaiyaphot, Chang Wat Buri Ram 31120, Thailand"
141,15.584283547323787,101.22275690486617,1,pharmacy|health|establishment|store|point_of_interest,"Unnamed Road, Tambon Bo Rang, Amphoe Wichian Buri, Chang Wat Phetchabun 67130, Thailand"
142,15.584283547323787,101.58690272178228,2,school|establishment|point_of_interest,"Unnamed Road, Tambon Sap Yai, Amphoe Sap Yai, Chang Wat Chaiyaphum 36130, Thailand"
143,15.584283547323787,101.64292515515399,2,school|establishment|point_of_interest,"2069, Tambon Ta Ko Thong, Amphoe Sap Yai, Chang Wat Chaiyaphum 36130, Thailand"
144,15.584283547323787,102.03508218875595,2,school|establishment|point_of_interest,"Unnamed Road, Tambon Ta Noen, Amphoe Noen Sa-nga, Chang Wat Chaiyaphum 36130, Thailand"
146,15.584283547323787,102.25917192224267,1,school|establishment|point_of_interest,"Unnamed Road, Tambon Nong Bua Sa-at, Amphoe Bua Yai, Chang Wat Nakhon Ratchasima 30120, Thailand"
147,15.584283547323787,102.31519435561438,1,school|establishment|point_of_interest,"Unnamed Road, Tambon Nong Bua Sa-at, Amphoe Bua Yai, Chang Wat Nakhon Ratchasima 30120, Thailand"
150,15.584283547323787,102.59530652247281,7,school|establishment|point_of_interest,"Unnamed Road, Tambon Nong Tat Yai, Amphoe Sida, Chang Wat Nakhon Ratchasima 30430, Thailand"
151,15.584283547323787,102.70735138921634,8,school|establishment|point_of_interest,"Unnamed Road, Tambon Nong Phluang, Amphoe Prathai, Chang Wat Nakhon Ratchasima 30180, Thailand"
152,15.584283547323787,103.01547477276051,8,school|establishment|point_of_interest,"Unnamed Road, Tambon Phutthaisong, Amphoe Phutthaisong, Chang Wat Buri Ram 31120, Thailand"
153,15.557303899952064,101.44681169364219,6,establishment|point_of_interest|hospital,"78 ม .8 บ้าน วัง ใหม่ พัฒนา ต บ้านไร่ อ เทพสถิต, ชัยภูมิ 36230, Thailand"
154,15.557303899952064,101.95094737955753,13,establishment|point_of_interest|hospital,"Unnamed Road, Tambon Nong Chim, Amphoe Noen Sa-nga, Chang Wat Chaiyaphum 36130, Thailand"
155,15.557303899952064,102.00696245577035,19,establishment|point_of_interest|hospital,"Unnamed Road, Tambon Nong Chim, Amphoe Noen Sa-nga, Chang Wat Chaiyaphum 36130, Thailand"
156,15.557303899952064,102.1750076844088,2,school|establishment|point_of_interest,"Unnamed Road, Tambon Khok Krabueang, Amphoe Ban Lueam, Chang Wat Nakhon Ratchasima 30350, Thailand"
157,15.557303899952064,102.28703783683443,1,school|establishment|point_of_interest,"Unnamed Road, Tambon Non Thong Lang, Amphoe Bua Yai, Chang Wat Nakhon Ratchasima 30120, Thailand"
160,15.557303899952064,102.5110981416857,6,school|establishment|point_of_interest,"Unnamed Road, Tambon Kut Chok, Amphoe Bua Yai, Chang Wat Nakhon Ratchasima 30120, Thailand"
161,15.557303899952064,102.67914337032414,1,establishment|store|point_of_interest|grocery_or_supermarket|food,"Unnamed Road, Tambon Han Huai Sai, Amphoe Prathai, Chang Wat Nakhon Ratchasima 30180, Thailand"
164,15.530324252580138,101.19474201677474,10,establishment|point_of_interest|hospital,"ถนนบ้านนา Tambon Na Sanun, Amphoe Si Thep, Chang Wat Phetchabun 67170, Thailand"
165,15.530324252580138,101.25074975017799,2,school|establishment|point_of_interest,"Unnamed Road, Tambon Na Sanun, Amphoe Si Thep, Chang Wat Phetchabun 67170, Thailand"
166,15.530324252580138,101.47478068379098,2,school|establishment|point_of_interest,"Unnamed Road, Tambon Ban Rai, Amphoe Thep Sathit, Chang Wat Chaiyaphum 36230, Thailand"
167,15.530324252580138,101.81082708421047,15,school|establishment|point_of_interest,"Unnamed Road, Tambon Nong Don, Amphoe Chatturat, Chang Wat Chaiyaphum 36130, Thailand"
168,15.530324252580138,101.89483868431535,9,school|establishment|point_of_interest,"Unnamed Road, Tambon Nong Bua Yai, Amphoe Chatturat, Chang Wat Chaiyaphum 36130, Thailand"
169,15.530324252580138,102.00685415112184,2,establishment|point_of_interest|hospital,"Unnamed Road, Tambon Ta Noen, Amphoe Noen Sa-nga, Chang Wat Chaiyaphum 36130, Thailand"
170,15.530324252580138,102.17487735133159,5,school|establishment|point_of_interest,"2246, Tambon Khok Krabueang, Amphoe Ban Lueam, Chang Wat Nakhon Ratchasima 30350, Thailand"
171,15.530324252580138,102.37090441824296,5,school|establishment|point_of_interest,"Moo 13, Tambon Non Thonglang, Amphoe Bua Yai, Nakhon Ratchasima, 30120, Thailand"
172,15.530324252580138,102.62293921855758,6,school|establishment|point_of_interest,"Unnamed Road, Tambon Krathum Rai, Amphoe Prathai, Chang Wat Nakhon Ratchasima 30180, Thailand"
173,15.530324252580138,102.95898561897707,4,school|establishment|point_of_interest,"Unnamed Road, Tambon Hai Sok, Amphoe Phutthaisong, Chang Wat Buri Ram 31120, Thailand"
175,15.503344605207992,101.19474018644883,6,school|establishment|point_of_interest,"Unnamed Road, Tambon Na Sanun, Amphoe Si Thep, Chang Wat Phetchabun 67170, Thailand"
176,15.503344605207992,101.25074059138262,1,school|establishment|point_of_interest,"Unnamed Road, Tambon Na Sanun, Amphoe Si Thep, Chang Wat Phetchabun 67170, Thailand"
177,15.503344605207992,101.41874180618436,8,school|establishment|point_of_interest,"Unnamed Road Watabaek, Thep Sathit District, Chaiyaphum 36230, Thailand"
178,15.503344605207992,101.44674200865131,9,school|establishment|point_of_interest,"ชย.3028 Tambon Huai Yai Chio, Amphoe Thep Sathit, Chang Wat Chaiyaphum 36230, Thailand"
179,15.503344605207992,101.50274241358522,2,establishment|store|point_of_interest|grocery_or_supermarket|food,"ชย.3028 Tambon Huai Yai Chio, Amphoe Thep Sathit, Chang Wat Chaiyaphum 36230, Thailand"
181,15.503344605207992,101.67074362838696,26,establishment|point_of_interest|hospital,"Unnamed Road, Tambon Ban Chuan, Amphoe Bamnet Narong, Chang Wat Chaiyaphum 36160, Thailand"
182,15.503344605207992,101.95074565305652,8,establishment|point_of_interest|hospital,"Unnamed Road, Tambon Rang Ngam, Amphoe Noen Sa-nga, Chang Wat Chaiyaphum 36130, Thailand"
183,15.503344605207992,101.97874585552347,1,school|establishment|point_of_interest,"Unnamed Road, Tambon Rang Ngam, Amphoe Noen Sa-nga, Chang Wat Chaiyaphum 36130, Thailand"
185,15.503344605207992,102.0907466653913,14,school|establishment|point_of_interest,"2369, Tambon Ban Prang, Amphoe Khong, Chang Wat Nakhon Ratchasima 30260, Thailand"
186,15.503344605207992,102.17474727279216,2,school|establishment|point_of_interest,"Unnamed Road, Tambon Nong Bua, Amphoe Khong, Chang Wat Nakhon Ratchasima 30260, Thailand"
187,15.503344605207992,102.20274747525912,1,school|establishment|point_of_interest,"Unnamed Road, Tambon Nong Bua, Amphoe Khong, Chang Wat Nakhon Ratchasima 30260, Thailand"
188,15.503344605207992,102.25874788019303,3,school|establishment|point_of_interest,"Unnamed Road, Tambon Nong Manao, Amphoe Khong, Chang Wat Nakhon Ratchasima 30260, Thailand"
189,15.503344605207992,102.28674808265998,4,school|establishment|point_of_interest,"35 หมู่ 9 Nong Manao, Khong District, Nakhon Ratchasima 30260, Thailand"
190,15.503344605207992,102.37074869006085,9,school|establishment|point_of_interest,"Unnamed Road, Tambon Non Thong Lang, Amphoe Bua Yai, Chang Wat Nakhon Ratchasima 30120, Thailand"
191,15.503344605207992,102.3987488925278,3,school|establishment|point_of_interest,"Unnamed Road, Tambon Non Thong Lang, Amphoe Bua Yai, Chang Wat Nakhon Ratchasima 30120, Thailand"
192,15.503344605207992,102.42674909499476,4,school|establishment|point_of_interest,"Unnamed Road, Tambon Sema Yai, Amphoe Bua Yai, Chang Wat Nakhon Ratchasima 30120, Thailand"
194,15.503344605207992,102.48274949992867,3,school|establishment|point_of_interest,"Unnamed Road, Tambon Non Pradu, Amphoe Sida, Chang Wat Nakhon Ratchasima 30120, Thailand"
195,15.503344605207992,102.56675010732954,3,school|establishment|point_of_interest,"Unnamed Road, Tambon Wang Hin, Amphoe Non Daeng, Chang Wat Nakhon Ratchasima 30360, Thailand"
196,15.503344605207992,102.62275051226345,3,school|establishment|point_of_interest,"Unnamed Road, Tambon Nang Ram, Amphoe Prathai, Chang Wat Nakhon Ratchasima 30180, Thailand"
199,15.503344605207992,102.87475233446617,3,school|establishment|point_of_interest,"Unnamed Road, Tambon Lahan Pla Khao, Amphoe Mueang Yang, Chang Wat Nakhon Ratchasima 30270, Thailand"
202,15.476364957835647,101.8106623584581,2,establishment|point_of_interest|hospital,"Unnamed Road, Tambon Ban Kham, Amphoe Chatturat, Chang Wat Chaiyaphum 36130, Thailand"
203,15.476364957835647,102.14662090323259,8,school|establishment|point_of_interest,"Unnamed Road Nong Bua, Khong District, Nakhon Ratchasima 30260, Thailand"
204,15.476364957835647,102.17461744863044,6,school|establishment|point_of_interest,"หมู่ 10, ตำบลหนองบัว อำเภอคง จังหวัดนครราชสีมา, 30260 30260, Thailand"
205,15.476364957835647,102.2026139940283,3,school|establishment|point_of_interest,"Unnamed Road, Tambon Non Teng, Amphoe Khong, Chang Wat Nakhon Ratchasima 30260, Thailand"
206,15.476364957835647,102.258607084824,3,school|establishment|point_of_interest,"2160, Tambon Non Teng, Amphoe Khong, Chang Wat Nakhon Ratchasima 30260, Thailand"
207,15.476364957835647,102.42658635721114,1,school|establishment|point_of_interest,"Unnamed Road, Tambon Sema Yai, Amphoe Bua Yai, Chang Wat Nakhon Ratchasima 30120, Thailand"
209,15.476364957835647,102.76254490198573,12,school|establishment|point_of_interest,"Unnamed Road, Tambon Khok Klang, Amphoe Prathai, Chang Wat Nakhon Ratchasima 30180, Thailand"
211,15.449385310463088,101.53065128242167,3,school|establishment|point_of_interest,"Unnamed Road, Tambon Huai Yai Chio, Amphoe Thep Sathit, Chang Wat Chaiyaphum 36230, Thailand"
214,15.449385310463088,101.81058023732271,2,establishment|store|point_of_interest,"Unnamed Road, Tambon Ban Kham, Amphoe Chatturat, Chang Wat Chaiyaphum 36130, Thailand"
219,15.449385310463088,102.70635289300651,1,school|establishment|point_of_interest,"Unnamed Road, Tambon Khok Klang, Amphoe Prathai, Chang Wat Nakhon Ratchasima 30270, Thailand"
220,15.449385310463088,102.84631737045709,3,school|establishment|point_of_interest,"Unnamed Road, Tambon Non Udom, Amphoe Mueang Yang, Chang Wat Nakhon Ratchasima 30270, Thailand"
221,15.449385310463088,102.95828895241755,5,school|establishment|point_of_interest,"Unnamed Road, Tambon Krabueang Nok, Amphoe Mueang Yang, Chang Wat Nakhon Ratchasima 30270, Thailand"
222,15.422405663090316,101.19473471695278,2,school|establishment|point_of_interest,"2245, Tambon Si Thep, Amphoe Si Thep, Chang Wat Phetchabun 67170, Thailand"
223,15.422405663090316,101.61457350804199,3,establishment|point_of_interest|hospital,"ชย.3010 Tambon Khok Phet Phatthana, Amphoe Bamnet Narong, Chang Wat Chaiyaphum 36160, Thailand"
224,15.422405663090316,101.67055201352036,7,school|establishment|point_of_interest,"Unnamed Road, Tambon Khok Roengrom, Amphoe Bamnet Narong, Chang Wat Chaiyaphum 36160, Thailand"
227,15.422405663090316,102.20234781556644,6,establishment|point_of_interest|hospital,"2150, Tambon Nong Hua Fan, Amphoe Kham Sakaesaeng, Chang Wat Nakhon Ratchasima 30290, Thailand"
228,15.422405663090316,102.23033706830574,15,establishment|point_of_interest|hospital,"578 Nong Hua Fan, Kham Sakaesaeng District, Nakhon Ratchasima, Thailand"
231,15.422405663090316,102.45425109021949,1,school|establishment|point_of_interest,"Unnamed Road, Tambon Non Tathen, Amphoe Non Daeng, Chang Wat Nakhon Ratchasima 30360, Thailand"
233,15.422405663090316,102.62218660665519,9,school|establishment|point_of_interest,"23 หมู่ที่ 6 บ้านโนนพุทรา, ตำบลกระชอน อำเภอพิมาย จังหวัดนครราชสีมา, 30110 Thailand"
235,15.422405663090316,102.67816511213368,6,school|establishment|point_of_interest,"Unnamed Road, Tambon Krachon, Amphoe Phimai, Chang Wat Nakhon Ratchasima 30110, Thailand"
236,15.422405663090316,102.70615436487287,1,school|establishment|point_of_interest,"Unnamed Road, Tambon Nong Lak, Amphoe Chum Phuang, Chang Wat Nakhon Ratchasima 30270, Thailand"
237,15.422405663090316,102.93006838678684,3,establishment|point_of_interest|hospital,"Unnamed Road, Tambon Mueang Yang, Amphoe Mueang Yang, Chang Wat Nakhon Ratchasima 30270, Thailand"
238,15.395426015717343,101.61451715805208,6,school|establishment|point_of_interest,"Unnamed Road, Tambon Khok Roengrom, Amphoe Bamnet Narong, Chang Wat Chaiyaphum 36160, Thailand"
239,15.395426015717343,101.83840209517814,3,school|establishment|point_of_interest,"201, Tambon Ban Praeng, Amphoe Dan Khun Thot, Chang Wat Nakhon Ratchasima 36220, Thailand"
240,15.395426015717343,101.95034456374117,1,school|establishment|point_of_interest,"Unnamed Road, Tambon Thap Rang, Amphoe Phra Thong Kham, Chang Wat Nakhon Ratchasima 30220, Thailand"
241,15.395426015717343,101.97833018088193,3,school|establishment|point_of_interest,"Unnamed Road, Tambon Thap Rang, Amphoe Phra Thong Kham, Chang Wat Nakhon Ratchasima 30220, Thailand"
242,15.395426015717343,102.09027264944496,1,establishment|home_goods_store|store|point_of_interest,"Unnamed Road, Tambon Non Mueang, Amphoe Kham Sakaesaeng, Chang Wat Nakhon Ratchasima 30290, Thailand"
243,15.395426015717343,102.23020073514874,6,school|establishment|point_of_interest,"Unnamed Road, Tambon Mueang Nat, Amphoe Kham Sakaesaeng, Chang Wat Nakhon Ratchasima 30290, Thailand"
248,15.395426015717343,102.92984116366767,4,school|establishment|point_of_interest,"Unnamed Road, Tambon Mueang Yang, Amphoe Mueang Yang, Chang Wat Nakhon Ratchasima 30270, Thailand"
249,15.368446368344152,101.33464103195342,5,establishment|point_of_interest|hospital,"ลบ.3004 Tambon Khao Ruak, Amphoe Lam Sonthi, Chang Wat Lopburi 15190, Thailand"
253,15.368446368344152,101.58647893016655,1,school|establishment|point_of_interest,"Unnamed Road, Tambon Nong Krat, Amphoe Dan Khun Thot, Chang Wat Nakhon Ratchasima 30210, Thailand"
254,15.368446368344152,101.69840688492786,7,establishment|home_goods_store|store|point_of_interest,"Unnamed Road, Tambon Nong Krat, Amphoe Dan Khun Thot, Chang Wat Nakhon Ratchasima 30210, Thailand"
255,15.368446368344152,101.75437086230863,2,school|establishment|point_of_interest,"Unnamed Road, Tambon Nong Krat, Amphoe Dan Khun Thot, Chang Wat Nakhon Ratchasima 30210, Thailand"
257,15.368446368344152,101.97822677183126,4,establishment|store|point_of_interest,"2369, Tambon Thap Rang, Amphoe Phra Thong Kham, Chang Wat Nakhon Ratchasima 30220, Thailand"
258,15.368446368344152,102.0621727379023,1,school|establishment|point_of_interest,"Unnamed Road, Tambon Chi Wuk, Amphoe Kham Sakaesaeng, Chang Wat Nakhon Ratchasima 30220, Thailand"
259,15.368446368344152,102.11813671528307,1,school|establishment|point_of_interest,"Unnamed Road, Tambon Chi Wuk, Amphoe Kham Sakaesaeng, Chang Wat Nakhon Ratchasima 30290, Thailand"
260,15.368446368344152,102.202082681354,1,establishment|store|point_of_interest|grocery_or_supermarket|food,"Unnamed Road, Tambon Kham Sakaesaeng, Amphoe Kham Sakaesaeng, Chang Wat Nakhon Ratchasima 30290, Thailand"
262,15.368446368344152,102.84566842123206,3,establishment|store|point_of_interest|grocery_or_supermarket|food,"Unnamed Road, Tambon Khui, Amphoe Lam Thamenchai, Chang Wat Nakhon Ratchasima 30270, Thailand"
266,15.341466720970756,101.2506860144,1,school|establishment|point_of_interest,"Unnamed Road, Tambon Ko Rang, Amphoe Chai Badan, Chang Wat Lopburi 15130, Thailand"
267,15.341466720970756,101.3625994839341,2,establishment|store|point_of_interest,"Unnamed Road, Tambon Lam Sonthi, Amphoe Lam Sonthi, Chang Wat Lopburi 15190, Thailand"
268,15.341466720970756,101.44653458608468,3,establishment|store|point_of_interest,"Unnamed Road, Tambon Bueng Prue, Amphoe Thepharak, Chang Wat Nakhon Ratchasima 30210, Thailand"
269,15.341466720970756,101.50249132085173,1,school|establishment|point_of_interest,"Unnamed Road, Tambon Wang Yai Thong, Amphoe Thepharak, Chang Wat Nakhon Ratchasima 30210, Thailand"
270,15.341466720970756,101.58642642300231,1,school|establishment|point_of_interest,"Unnamed Road, Tambon Nong Krat, Amphoe Dan Khun Thot, Chang Wat Nakhon Ratchasima 30210, Thailand"
271,15.341466720970756,101.61440479038583,1,school|establishment|point_of_interest,"Unnamed Road, Tambon Nong Krat, Amphoe Dan Khun Thot, Chang Wat Nakhon Ratchasima 30210, Thailand"
272,15.341466720970756,101.69833989253641,9,school|establishment|point_of_interest,"Unnamed Road, Tambon Nong Krat, Amphoe Dan Khun Thot, Chang Wat Nakhon Ratchasima 30210, Thailand"
274,15.341466720970756,101.89418846422109,1,school|establishment|point_of_interest,"Unnamed Road, Tambon Non Mueang Phatthana, Amphoe Dan Khun Thot, Chang Wat Nakhon Ratchasima 30210, Thailand"
275,15.341466720970756,102.06205866852224,1,school|establishment|point_of_interest,"Unnamed Road, Tambon Nong Hoi, Amphoe Phra Thong Kham, Chang Wat Nakhon Ratchasima 30220, Thailand"
276,15.341466720970756,102.17397213805634,28,school|establishment|point_of_interest,"2150, Tambon Kham Sakaesaeng, Amphoe Kham Sakaesaeng, Chang Wat Nakhon Ratchasima 30290, Thailand"
277,15.341466720970756,102.20195050543987,2,school|establishment|point_of_interest,"Unnamed Road, Tambon Kham Thao, Amphoe Non Sung, Chang Wat Nakhon Ratchasima 30290, Thailand"
279,15.341466720970756,102.50971254665865,4,school|establishment|point_of_interest,"Unnamed Road, Tambon Chi Wan, Amphoe Phimai, Chang Wat Nakhon Ratchasima 30110, Thailand"
280,15.341466720970756,102.59364764880922,7,school|establishment|point_of_interest,"Unnamed Road, Tambon Krachon, Amphoe Phimai, Chang Wat Nakhon Ratchasima 30110, Thailand"
281,15.341466720970756,102.64960438357627,1,school|establishment|point_of_interest,"Unnamed Road Dong Yai, Phimai District, Nakhon Ratchasima, Thailand"
284,15.341466720970756,102.84545295526095,1,establishment|store|point_of_interest|grocery_or_supermarket|food,"Unnamed Road, Tambon Non Yo, Amphoe Chum Phuang, Chang Wat Nakhon Ratchasima 30270, Thailand"
285,15.341466720970756,102.87343132264448,9,establishment|point_of_interest|hospital,"Unnamed Road, Tambon Khui, Amphoe Lam Thamenchai, Chang Wat Nakhon Ratchasima 30270, Thailand"
288,15.314487073597153,101.39055074684484,1,school|establishment|point_of_interest,"Unnamed Road, Tambon Bueng Prue, Amphoe Thepharak, Chang Wat Nakhon Ratchasima 30210, Thailand"
289,15.314487073597153,101.44650025327678,5,school|establishment|point_of_interest,"Unnamed Road, Tambon Bueng Prue, Amphoe Thepharak, Chang Wat Nakhon Ratchasima 30210, Thailand"
290,15.314487073597153,101.47447500649264,3,establishment|store|point_of_interest|grocery_or_supermarket|food,"Unnamed Road Bueng Prue, Thepharak District, Nakhon Ratchasima 30210, Thailand"
292,15.314487073597153,102.22979334332399,5,school|establishment|point_of_interest,"นม.4011 Tambon Kham Thao, Amphoe Non Sung, Chang Wat Nakhon Ratchasima 30160, Thailand"
293,15.314487073597153,102.28574284975593,3,school|establishment|point_of_interest,"Unnamed Road, Tambon Phon Songkhram, Amphoe Non Sung, Chang Wat Nakhon Ratchasima 30160, Thailand"
294,15.314487073597153,102.31371760297202,13,school|establishment|point_of_interest,"Unnamed Road, Tambon Makha, Amphoe Non Sung, Chang Wat Nakhon Ratchasima 30160, Thailand"
296,15.314487073597153,102.36966710940396,6,school|establishment|point_of_interest,"1013 Rural Rd, Tambon Ta Chan, Amphoe Khong, Chang Wat Nakhon Ratchasima 30260, Thailand"
299,15.314487073597153,102.67738939477977,7,school|establishment|point_of_interest,"Unnamed Road, Tambon Prasuk, Amphoe Chum Phuang, Chang Wat Nakhon Ratchasima 30270, Thailand"
303,15.287507426223344,101.27863911114957,2,school|establishment|point_of_interest,"ลบ.3031 Tambon Nong Yai To, Amphoe Chai Badan, Chang Wat Lopburi 15130, Thailand"
306,15.287507426223344,101.64226401153383,1,school|establishment|point_of_interest,"Unnamed Road, Tambon Phan Chana, Amphoe Dan Khun Thot, Chang Wat Nakhon Ratchasima 30210, Thailand"
308,15.287507426223344,101.75414859626744,4,school|establishment|point_of_interest,"Unnamed Road, Tambon Kut Phiman, Amphoe Dan Khun Thot, Chang Wat Nakhon Ratchasima 30210, Thailand"
309,15.287507426223344,101.81009088863425,5,school|establishment|point_of_interest,"Unnamed Road, Tambon Nong Bua Takiat, Amphoe Dan Khun Thot, Chang Wat Nakhon Ratchasima 30210, Thailand"
310,15.287507426223344,101.83806203481765,2,school|establishment|point_of_interest,"Unnamed Road, Tambon Nong Bua Takiat, Amphoe Dan Khun Thot, Chang Wat Nakhon Ratchasima 30210, Thailand"
311,15.287507426223344,102.08980235046829,2,school|establishment|point_of_interest,"Unnamed Road, Tambon Makha, Amphoe Non Thai, Chang Wat Nakhon Ratchasima 30220, Thailand"
312,15.287507426223344,102.34154266611893,3,school|establishment|point_of_interest,"Unnamed Road, Tambon Makha, Amphoe Non Sung, Chang Wat Nakhon Ratchasima 30260, Thailand"
314,15.287507426223344,102.50936954321935,2,school|establishment|point_of_interest,"Unnamed Road, Tambon Chi Wan, Amphoe Phimai, Chang Wat Nakhon Ratchasima 30110, Thailand"
316,15.287507426223344,102.62125412795297,12,school|establishment|point_of_interest,"Unnamed Road, Tambon Bot, Amphoe Phimai, Chang Wat Nakhon Ratchasima 30110, Thailand"
317,15.287507426223344,102.64922527413637,12,school|establishment|point_of_interest,"Unnamed Road, Tambon Bot, Amphoe Phimai, Chang Wat Nakhon Ratchasima 30110, Thailand"
318,15.287507426223344,102.76110985886999,1,establishment|home_goods_store|store|point_of_interest,"Unnamed Road, Tambon Non Rang, Amphoe Chum Phuang, Chang Wat Nakhon Ratchasima 30270, Thailand"
319,15.287507426223344,102.78908100505339,1,school|establishment|point_of_interest,"Unnamed Road, Tambon Non Rang, Amphoe Chum Phuang, Chang Wat Nakhon Ratchasima 30270, Thailand"
320,15.287507426223344,102.8170521512368,1,school|establishment|point_of_interest,"Unnamed Road, Tambon Non Rang, Amphoe Chum Phuang, Chang Wat Nakhon Ratchasima 30270, Thailand"
321,15.287507426223344,102.8450232974202,11,establishment|point_of_interest|hospital,"Unnamed Road, Tambon Chong Maeo, Amphoe Lam Thamenchai, Chang Wat Nakhon Ratchasima 30270, Thailand"
328,15.260527778849323,101.53033442980518,1,school|establishment|point_of_interest,"Unnamed Road, Tambon Nong Waeng, Amphoe Thepharak, Chang Wat Nakhon Ratchasima 30210, Thailand"
330,15.260527778849323,101.69813970749283,5,school|establishment|point_of_interest,"นม.3012 Tambon Phan Chana, Amphoe Dan Khun Thot, Chang Wat Nakhon Ratchasima 30210, Thailand"
331,15.260527778849323,101.75407480005538,3,school|establishment|point_of_interest,"Unnamed Road, Tambon Kut Phiman, Amphoe Dan Khun Thot, Chang Wat Nakhon Ratchasima 30210, Thailand"
332,15.260527778849323,101.92188007774303,1,school|establishment|point_of_interest,"Unnamed Road, Tambon Banlang, Amphoe Non Thai, Chang Wat Nakhon Ratchasima 30220, Thailand"
334,15.260527778849323,102.14562044799322,3,establishment|store|point_of_interest|grocery_or_supermarket|food,"Unnamed Road, Tambon Thanon Pho, Amphoe Non Thai, Chang Wat Nakhon Ratchasima 30220, Thailand"
335,15.260527778849323,102.34139327196215,4,school|establishment|point_of_interest,"นม.1015 Tambon Lum Khao, Amphoe Non Sung, Chang Wat Nakhon Ratchasima 30160, Thailand"
338,15.260527778849323,102.59310118849362,8,school|establishment|point_of_interest,"Unnamed Road, Tambon Bot, Amphoe Phimai, Chang Wat Nakhon Ratchasima 30110, Thailand"
339,15.260527778849323,102.6210687347749,5,school|establishment|point_of_interest,"Unnamed Road, Tambon Bot, Amphoe Phimai, Chang Wat Nakhon Ratchasima 30110, Thailand"
340,15.260527778849323,102.7329389199,1,school|establishment|point_of_interest,"Unnamed Road, Tambon Tha Lat, Amphoe Chum Phuang, Chang Wat Nakhon Ratchasima 30270, Thailand"
341,15.260527778849323,102.78887401246254,2,establishment|point_of_interest|hospital,"Unnamed Road, Tambon Non Rang, Amphoe Chum Phuang, Chang Wat Nakhon Ratchasima 30270, Thailand"
342,15.260527778849323,102.87277665130637,1,local_government_office|establishment|point_of_interest,"นม.4047 Tambon Chong Maeo, Amphoe Lam Thamenchai, Chang Wat Nakhon Ratchasima 30270, Thailand"
343,15.260527778849323,102.92871174386892,1,school|establishment|point_of_interest,"นม.5028 Tambon Ban Yang, Amphoe Lam Thamenchai, Chang Wat Nakhon Ratchasima 30270, Thailand"
346,15.2335481314751,101.22268603332782,5,establishment|point_of_interest|hospital,"2272, Tambon Bua Chum, Amphoe Chai Badan, Chang Wat Lopburi 15130, Thailand"
347,15.2335481314751,101.2506499868332,6,establishment|point_of_interest|hospital,"Unnamed Road, Tambon Nong Yai To, Amphoe Chai Badan, Chang Wat Lopburi 15130, Thailand"
349,15.2335481314751,101.53028952188697,3,school|establishment|point_of_interest,"Unnamed Road, Tambon Nong Waeng, Amphoe Thepharak, Chang Wat Nakhon Ratchasima 30210, Thailand"
350,15.2335481314751,101.58621742889773,1,school|establishment|point_of_interest,"Unnamed Road, Tambon Nong Waeng, Amphoe Thepharak, Chang Wat Nakhon Ratchasima 30210, Thailand"
351,15.2335481314751,101.69807324291924,1,school|establishment|point_of_interest,"Unnamed Road, Tambon Phan Chana, Amphoe Dan Khun Thot, Chang Wat Nakhon Ratchasima 30210, Thailand"
352,15.2335481314751,102.1175325454999,2,school|establishment|point_of_interest,"Unnamed Road, Tambon Makha, Amphoe Non Thai, Chang Wat Nakhon Ratchasima 30220, Thailand"
353,15.2335481314751,102.34124417354292,4,school|establishment|point_of_interest,"Unnamed Road, Tambon Lum Khao, Amphoe Non Sung, Chang Wat Nakhon Ratchasima 30160, Thailand"
354,15.2335481314751,102.56495580158594,7,school|establishment|point_of_interest,"Unnamed Road, Tambon Rang Ka Yai, Amphoe Phimai, Chang Wat Nakhon Ratchasima 30110, Thailand"
356,15.2335481314751,102.67681161560745,3,school|establishment|point_of_interest,"Unnamed Road, Tambon Tha Lat, Amphoe Chum Phuang, Chang Wat Nakhon Ratchasima 30270, Thailand"
360,15.206568484100666,101.41840323158522,1,school|establishment|point_of_interest,"Unnamed Road, Tambon Huai Bong, Amphoe Dan Khun Thot, Chang Wat Nakhon Ratchasima 30210, Thailand"
363,15.206568484100666,101.698006910098,1,school|establishment|point_of_interest,"Unnamed Road, Tambon Ban Kao, Amphoe Dan Khun Thot, Chang Wat Nakhon Ratchasima 30210, Thailand"
364,15.206568484100666,101.78188801365184,42,establishment|point_of_interest|hospital,"178/1 หมู่ ที่ 1, ตำบล ด่านขุนทด อำเภอ ด่านขุนทด นครราชสีมา Thailand"
365,15.206568484100666,101.80984838150312,12,establishment|point_of_interest|hospital,"Unnamed Road, Tambon Dan Khun Thot, Amphoe Dan Khun Thot, Chang Wat Nakhon Ratchasima 30210, Thailand"
367,15.206568484100666,101.86576911720567,2,school|establishment|point_of_interest,"Unnamed Road, Tambon Nong Bua Lakhon, Amphoe Dan Khun Thot, Chang Wat Nakhon Ratchasima 30210, Thailand"
368,15.206568484100666,101.89372948505695,1,school|establishment|point_of_interest,"Unnamed Road, Tambon Banlang, Amphoe Non Thai, Chang Wat Nakhon Ratchasima 30220, Thailand"
369,15.206568484100666,101.92168985290823,1,school|establishment|point_of_interest,"Unnamed Road, Tambon Banlang, Amphoe Non Thai, Chang Wat Nakhon Ratchasima 30220, Thailand"
370,15.206568484100666,101.94965022075951,1,school|establishment|point_of_interest,"Unnamed Road, Tambon Banlang, Amphoe Non Thai, Chang Wat Nakhon Ratchasima 30220, Thailand"
371,15.206568484100666,102.14537279571857,5,establishment|point_of_interest|hospital,"Unnamed Road, Tambon Mueang Prasat, Amphoe Non Sung, Chang Wat Nakhon Ratchasima 30160, Thailand"
372,15.206568484100666,102.17333316356985,2,school|establishment|point_of_interest,"Unnamed Road, Tambon Mueang Prasat, Amphoe Non Sung, Chang Wat Nakhon Ratchasima 30160, Thailand"
373,15.206568484100666,102.45293684208264,5,school|establishment|point_of_interest,"Phimai-Chakkarat Rd, Tambon Samrit, Amphoe Phimai, Chang Wat Nakhon Ratchasima 30110, Thailand"
374,15.206568484100666,102.53681794563647,12,school|establishment|point_of_interest,"Yothathikan Nakhon Ratchasima Rang Ka Yai-ta Pan Rd, Tambon Rang Ka Yai, Amphoe Phimai, Chang Wat Nakhon Ratchasima 30110, Thailand"
377,15.206568484100666,102.67661978489286,3,school|establishment|point_of_interest,"Unnamed Road, Tambon Tha Lat, Amphoe Chum Phuang, Chang Wat Nakhon Ratchasima 30270, Thailand"
380,15.206568484100666,103.0121441991082,6,school|establishment|point_of_interest,"Moo.5, Tambon Phon Samran, Amphoe Khu Mueang, Buriram, 31190, Thailand"
381,15.17958883672603,101.19471850128502,1,establishment|store|point_of_interest|grocery_or_supermarket|food,"Unnamed Road, Tambon Tha Manao, Amphoe Chai Badan, Chang Wat Lopburi 15130, Thailand"
383,15.17958883672603,101.44632960511797,1,establishment|point_of_interest|hospital,"Unnamed Road, Tambon Huai Bong, Amphoe Dan Khun Thot, Chang Wat Nakhon Ratchasima 30210, Thailand"
384,15.17958883672603,101.6140703410066,4,school|establishment|point_of_interest,"Unnamed Road, Tambon Hin Dat, Amphoe Dan Khun Thot, Chang Wat Nakhon Ratchasima 30210, Thailand"
385,15.17958883672603,101.92159502346908,1,school|establishment|point_of_interest,"Unnamed Road, Tambon Ban Wang, Amphoe Non Thai, Chang Wat Nakhon Ratchasima 30220, Thailand"
387,15.17958883672603,102.25707649524634,30,establishment|point_of_interest|hospital,"Thanon Sri Thani, Tambon Non Sung, Amphoe Non Sung, Chang Wat Nakhon Ratchasima 30160, Thailand"
388,15.17958883672603,102.31299007387588,5,school|establishment|point_of_interest,"111 หมู่ 3 Tambon Don Chomphu, Amphoe Non Sung, Chang Wat Nakhon Ratchasima 30160, Thailand"
389,15.17958883672603,102.3968604418202,3,school|establishment|point_of_interest,"Unnamed Road, Tambon Than Lalot, Amphoe Phimai, Chang Wat Nakhon Ratchasima 30110, Thailand"
390,15.17958883672603,102.48073080976451,6,school|establishment|point_of_interest,"Unnamed Road, Tambon Nai Mueang, Amphoe Phimai, Chang Wat Nakhon Ratchasima 30110, Thailand"
392,15.17958883672603,102.56460117770882,2,establishment|store|point_of_interest,"197 หมู่ 12 บ้านพุทรา, ตำบลรังกาใหญ่ อำเภอพิมาย จังหวัดนครราชสีมา, 30110 Thailand"
393,15.17958883672603,102.62051475633837,1,school|establishment|point_of_interest,"นม.4061 Tambon Bot, Amphoe Phimai, Chang Wat Nakhon Ratchasima 30110, Thailand"
394,15.17958883672603,102.76029870291222,1,school|establishment|point_of_interest,"Unnamed Road, Tambon Non Tun, Amphoe Chum Phuang, Chang Wat Nakhon Ratchasima 30270, Thailand"
397,15.15260918935119,101.47424889626484,1,school|establishment|point_of_interest,"Unnamed Road, Tambon Huai Bong, Amphoe Dan Khun Thot, Chang Wat Nakhon Ratchasima 30210, Thailand"
398,15.15260918935119,101.50220211415626,2,school|establishment|point_of_interest,"Unnamed Road, Tambon Huai Bong, Amphoe Dan Khun Thot, Chang Wat Nakhon Ratchasima 30210, Thailand"
400,15.15260918935119,101.61401498572195,3,school|establishment|point_of_interest,"Unnamed Road, Tambon Hin Dat, Amphoe Dan Khun Thot, Chang Wat Nakhon Ratchasima 30210, Thailand"
401,15.15260918935119,101.69787463939622,6,school|establishment|point_of_interest,"Unnamed Road, Tambon Takhian, Amphoe Dan Khun Thot, Chang Wat Nakhon Ratchasima 30210, Thailand"
403,15.15260918935119,101.80968751096191,3,establishment|point_of_interest|hospital,"Unnamed Road, Tambon Sa Chorakhe, Amphoe Dan Khun Thot, Chang Wat Nakhon Ratchasima 30210, Thailand"
404,15.15260918935119,101.89354716463617,5,school|establishment|point_of_interest,"Unnamed Road, Tambon Dan Nai, Amphoe Dan Khun Thot, Chang Wat Nakhon Ratchasima 30210, Thailand"
405,15.15260918935119,102.00536003620186,4,school|establishment|point_of_interest,"Unnamed Road, Tambon Samrong, Amphoe Non Thai, Chang Wat Nakhon Ratchasima 30220, Thailand"
407,15.15260918935119,102.14512612565898,7,school|establishment|point_of_interest,"Unnamed Road, Tambon Chan-at, Amphoe Non Sung, Chang Wat Nakhon Ratchasima 30160, Thailand"
411,15.15260918935119,102.50851795824747,15,school|establishment|point_of_interest,"Unnamed Road, Tambon Nikhom Sang Ton Eng, Amphoe Phimai, Chang Wat Nakhon Ratchasima 30110, Thailand"
412,15.15260918935119,102.56442439403031,1,establishment|store|point_of_interest,"Unnamed Road, Tambon Rang Ka Yai, Amphoe Phimai, Chang Wat Nakhon Ratchasima 30110, Thailand"
413,15.15260918935119,102.676237265596,7,school|establishment|point_of_interest,"Unnamed Road, Tambon Lung Takhian, Amphoe Huai Thalaeng, Chang Wat Nakhon Ratchasima 30240, Thailand"
414,15.15260918935119,102.84395657294453,3,school|establishment|point_of_interest,"2223, Tambon Khok Lam, Amphoe Lam Plai Mat, Chang Wat Buri Ram 31130, Thailand"
415,15.15260918935119,102.87190979083596,1,school|establishment|point_of_interest,"Unnamed Road, Tambon Khok Sa-at, Amphoe Lam Plai Mat, Chang Wat Buri Ram 31130, Thailand"
416,15.15260918935119,103.01167588029307,1,school|establishment|point_of_interest,"Unnamed Road, Tambon Phon Samran, Amphoe Khu Mueang, Chang Wat Buri Ram 31190, Thailand"
417,15.125629541976146,101.33446320485461,5,establishment|point_of_interest|hospital,"Unnamed Road, Tambon Sap Ta Khian, Amphoe Chai Badan, Chang Wat Lopburi 15130, Thailand"
418,15.125629541976146,101.39036251200866,1,school|establishment|point_of_interest,"Unnamed Road, Tambon Khao Noi, Amphoe Lam Sonthi, Chang Wat Lopburi 15130, Thailand"
419,15.125629541976146,101.47421147273974,1,cafe|establishment|store|point_of_interest|food,"Unnamed Road, Tambon Huai Bong, Amphoe Dan Khun Thot, Chang Wat Nakhon Ratchasima 30210, Thailand"
420,15.125629541976146,101.50216112631676,26,school|establishment|point_of_interest,"Unnamed Road, Tambon Huai Bong, Amphoe Dan Khun Thot, Chang Wat Nakhon Ratchasima 30210, Thailand"
421,15.125629541976146,101.61395974062486,8,school|establishment|point_of_interest,"Unnamed Road, Tambon Hin Dat, Amphoe Dan Khun Thot, Chang Wat Nakhon Ratchasima 30210, Thailand"
422,15.125629541976146,101.72575835493296,2,school|establishment|point_of_interest,"เลขที่ 187 หมู่ 3 ถนน ชัยภูมิ - สีคิ้ว Takhian, Dan Khun Thot District, Nakhon Ratchasima 30210, Thailand"
423,15.125629541976146,101.75370800850999,1,establishment|home_goods_store|store|point_of_interest,"Unnamed Road, Tambon Dan Khun Thot, Amphoe Dan Khun Thot, Chang Wat Nakhon Ratchasima 30210, Thailand"
425,15.125629541976146,101.92140592997214,3,school|establishment|point_of_interest,"Unnamed Road, Tambon Ban Wang, Amphoe Non Thai, Chang Wat Nakhon Ratchasima 30220, Thailand"
426,15.125629541976146,101.94935558354916,2,school|establishment|point_of_interest,"Unnamed Road, Tambon Khang Phlu, Amphoe Non Thai, Chang Wat Nakhon Ratchasima 30220, Thailand"
427,15.125629541976146,102.00525489070321,2,school|establishment|point_of_interest,"Unnamed Road, Tambon Samrong, Amphoe Non Thai, Chang Wat Nakhon Ratchasima 30220, Thailand"
432,15.125629541976146,102.70399623012884,4,school|establishment|point_of_interest,"Unnamed Road, Tambon Lung Takhian, Amphoe Huai Thalaeng, Chang Wat Nakhon Ratchasima 30240, Thailand"
433,15.125629541976146,102.87169415159099,1,school|establishment|point_of_interest,"Unnamed Road, Tambon Khok Lam, Amphoe Lam Plai Mat, Chang Wat Buri Ram 31130, Thailand"
436,15.098649894600895,101.50212022017843,8,school|establishment|point_of_interest,"Unnamed Road, Tambon Wang Rong Yai, Amphoe Sikhio, Chang Wat Nakhon Ratchasima 30210, Thailand"
437,15.098649894600895,101.55801241291272,1,school|establishment|point_of_interest,"Unnamed Road, Tambon Huai Bong, Amphoe Dan Khun Thot, Chang Wat Nakhon Ratchasima 30210, Thailand"
438,15.098649894600895,101.61390460564701,1,school|establishment|point_of_interest,"Unnamed Road, Tambon Hin Dat, Amphoe Dan Khun Thot, Chang Wat Nakhon Ratchasima, Thailand"
439,15.098649894600895,101.64185070201415,3,school|establishment|point_of_interest,"Unnamed Road, Tambon Hin Dat, Amphoe Dan Khun Thot, Chang Wat Nakhon Ratchasima 30210, Thailand"
440,15.098649894600895,101.78158118384988,1,school|establishment|point_of_interest,"Unnamed Road, Tambon Sa Chorakhe, Amphoe Dan Khun Thot, Chang Wat Nakhon Ratchasima 30210, Thailand"
441,15.098649894600895,102.14488043662277,5,establishment|point_of_interest|hospital,"นม.1049 Tambon Khok Sung, Amphoe Mueang Nakhon Ratchasima, Chang Wat Nakhon Ratchasima 30310, Thailand"
445,15.098649894600895,102.61996407486424,2,school|establishment|point_of_interest,"Unnamed Road, Tambon Lung Takhian, Amphoe Huai Thalaeng, Chang Wat Nakhon Ratchasima 30240, Thailand"
449,15.071670247225441,101.97710268207129,1,school|establishment|point_of_interest,"Unnamed Road, Tambon Phan Dung, Amphoe Kham Thale So, Chang Wat Nakhon Ratchasima 30280, Thailand"
450,15.071670247225441,102.06093032084402,2,school|establishment|point_of_interest,"Unnamed Road, Tambon Phut Sa, Amphoe Mueang Nakhon Ratchasima, Chang Wat Nakhon Ratchasima 30000, Thailand"
454,15.071670247225441,102.36829832967737,10,school|establishment|point_of_interest,"Unnamed Road, Tambon Thong Lang, Amphoe Chakkarat, Chang Wat Nakhon Ratchasima 30230, Thailand"
455,15.071670247225441,102.50801106096526,3,school|establishment|point_of_interest,"Unnamed Road, Tambon Lung Pradu, Amphoe Huai Thalaeng, Chang Wat Nakhon Ratchasima 30240, Thailand"
456,15.071670247225441,102.61978124599557,7,school|establishment|point_of_interest,"Unnamed Road, Tambon Mueang Phup Phla, Amphoe Huai Thalaeng, Chang Wat Nakhon Ratchasima 30240, Thailand"
457,15.071670247225441,102.7036088847683,1,school|establishment|point_of_interest,"Rural Rd Nakhon Ratchasima 4006, Tambon Ngio, Amphoe Huai Thalaeng, Chang Wat Nakhon Ratchasima 30240, Thailand"
459,15.044690599849782,101.25058762361334,4,school|establishment|point_of_interest,"Unnamed Road, Tambon Sap Champa, Amphoe Tha Luang, Chang Wat Lopburi 15230, Thailand"
462,15.044690599849782,101.8931846982266,1,school|establishment|point_of_interest,"Unnamed Road, Tambon Bueng O, Amphoe Kham Thale So, Chang Wat Nakhon Ratchasima 30280, Thailand"
463,15.044690599849782,102.03287971444672,11,school|establishment|point_of_interest,"Unnamed Road, Tambon Phut Sa, Amphoe Mueang Nakhon Ratchasima, Chang Wat Nakhon Ratchasima 30000, Thailand"
464,15.044690599849782,102.06081871769072,12,establishment|point_of_interest|hospital,"2198, Tambon Phut Sa, Amphoe Mueang Nakhon Ratchasima, Chang Wat Nakhon Ratchasima 30000, Thailand"
468,15.044690599849782,102.20051373391084,31,establishment|point_of_interest|hospital,"103 หมู่ 4 บ้าน ลอง อง ต, ตำบล บ้านโพธิ์ อำเภอเมืองนครราชสีมา นครราชสีมา Thailand"
469,15.044690599849782,102.22845273715484,5,school|establishment|point_of_interest,"Unnamed Road, Tambon Nong Ngu Lueam, Amphoe Chaloem Phra Kiat, Chang Wat Nakhon Ratchasima 30000, Thailand"
470,15.044690599849782,102.25639174039884,5,school|establishment|point_of_interest,"Unnamed Road, Tambon Nong Ngu Lueam, Amphoe Chaloem Phra Kiat, Chang Wat Nakhon Ratchasima 30000, Thailand"
473,15.044690599849782,102.81517180527953,3,school|establishment|point_of_interest,"Unnamed Road, Tambon Hin Khon, Amphoe Lam Plai Mat, Chang Wat Buri Ram 31130, Thailand"
474,15.044690599849782,102.87104981176753,5,school|establishment|point_of_interest,"Unnamed Road, Tambon Nong Khu, Amphoe Lam Plai Mat, Chang Wat Buri Ram 31130, Thailand"
475,15.017710952473925,101.22264331825863,2,school|establishment|point_of_interest,"Unnamed Road, Tambon Sap Champa, Amphoe Tha Luang, Chang Wat Lopburi 15230, Thailand"
477,15.017710952473925,101.52993345880418,1,school|establishment|point_of_interest,"Unnamed Road, Tambon Nong Ya Khao, Amphoe Sikhio, Chang Wat Nakhon Ratchasima 30140, Thailand"
479,15.017710952473925,101.8092881320274,1,school|establishment|point_of_interest,"Unnamed Road, Tambon Sema, Amphoe Sung Noen, Chang Wat Nakhon Ratchasima 30170, Thailand"
480,15.017710952473925,101.94896546863902,9,school|establishment|point_of_interest,"Unnamed Road, Tambon Bueng O, Amphoe Kham Thale So, Chang Wat Nakhon Ratchasima 30280, Thailand"
481,15.017710952473925,101.97690093596134,8,school|establishment|point_of_interest,"Unnamed Road, Si Mum, Mueang Nakhon Ratchasima District, Chang Wat Nakhon Ratchasima, Thailand"
482,15.017710952473925,102.00483640328366,11,establishment|point_of_interest|hospital,"2198, Tambon Phon Krung, Amphoe Mueang Nakhon Ratchasima, Chang Wat Nakhon Ratchasima 30000, Thailand"
490,15.017710952473925,102.47973934776314,1,school|establishment|point_of_interest,"Unnamed Road, Tambon Hin Khon, Amphoe Chakkarat, Chang Wat Nakhon Ratchasima 30230, Thailand"
493,14.990731305097858,101.50195741165817,3,school|establishment|point_of_interest,"Unnamed Road, Tambon Don Mueang, Amphoe Sikhio, Chang Wat Nakhon Ratchasima 30140, Thailand"
494,14.990731305097858,101.61368516561004,3,school|establishment|point_of_interest,"Unnamed Road, Tambon Kritsana, Amphoe Sikhio, Chang Wat Nakhon Ratchasima 30140, Thailand"
498,14.990731305097858,101.78127679653812,1,school|establishment|point_of_interest,"Unnamed Road, Tambon Sema, Amphoe Sung Noen, Chang Wat Nakhon Ratchasima 30170, Thailand"
507,14.990731305097858,102.4795752587379,3,school|establishment|point_of_interest,"Unnamed Road, Tambon Chakkarat, Amphoe Chakkarat, Chang Wat Nakhon Ratchasima 30230, Thailand"
508,14.990731305097858,102.53543913571389,1,school|establishment|point_of_interest,"Unnamed Road, Tambon Hin Dat, Amphoe Huai Thalaeng, Chang Wat Nakhon Ratchasima 30240, Thailand"
510,14.990731305097858,102.70303076664186,7,school|establishment|point_of_interest,"หมู่ 6, ตําบลห้วยแคน อําเภอห้วยแถลง จังหวัดนครราชสีมา, 30240 30240, Thailand"
511,14.990731305097858,102.73096270512985,3,school|establishment|point_of_interest,"226, Tambon Phathai Rin, Amphoe Lam Plai Mat, Chang Wat Buri Ram 31130, Thailand"
512,14.990731305097858,102.75889464361785,5,school|establishment|point_of_interest,"Unnamed Road, Tambon Phathai Rin, Amphoe Lam Plai Mat, Chang Wat Buri Ram 31130, Thailand"
513,14.990731305097858,102.89855433605794,2,school|establishment|point_of_interest,"Unnamed Road, Tambon Nong Bua Khok, Amphoe Lam Plai Mat, Chang Wat Buri Ram 31130, Thailand"
517,14.990731305097858,103.01028209000992,3,school|establishment|point_of_interest,"5 หมู่ 3, ตำบลหนองตาด อำเภอเมืองบุรีรัมย์ จังหวัดบุรีรัมย์, 31000 Thailand"
518,14.963751657721598,101.27848957939523,6,establishment|point_of_interest|hospital,"Unnamed Road, Tambon Huai Khun Ram, Amphoe Phatthana Nikhom, Chang Wat Lopburi, Thailand"
520,14.963751657721598,101.41813166307986,11,establishment|point_of_interest|hospital,"Unnamed Road, Tambon Lam Som Phung, Amphoe Muak Lek, Chang Wat Saraburi 30130, Thailand"
521,14.963751657721598,101.47398849655372,2,school|establishment|point_of_interest,"Unnamed Road, Tambon Don Mueang, Amphoe Sikhio, Chang Wat Nakhon Ratchasima 30140, Thailand"
522,14.963751657721598,101.5577737467645,6,school|establishment|point_of_interest,"Unnamed Road, Tambon Nong Ya Khao, Amphoe Sikhio, Chang Wat Nakhon Ratchasima 30140, Thailand"
524,14.963751657721598,101.75327266392298,12,school|establishment|point_of_interest,"Unnamed Road, Tambon Ban Han, Amphoe Sikhio, Chang Wat Nakhon Ratchasima 30140, Thailand"
535,14.963751657721598,102.53526833255694,1,school|establishment|point_of_interest,"Unnamed Road, Amphoe Huai Thalaeng, Chang Wat Nakhon Ratchasima, Thailand"
536,14.963751657721598,102.56319674929387,2,school|establishment|point_of_interest,"Unnamed Road, Tambon Hin Dat, Amphoe Huai Thalaeng, Chang Wat Nakhon Ratchasima 30240, Thailand"
538,14.963751657721598,102.84248091666313,9,establishment|point_of_interest|hospital,"2073, Tambon Khok Klang, Amphoe Lam Plai Mat, Chang Wat Buri Ram 31130, Thailand"
539,14.963751657721598,103.0100514170847,6,school|establishment|point_of_interest,"18 หมู่ 3 กระสัง เมืองบุรีรัมย์ Buri Ram 31000, Thailand"
540,14.93677201034513,101.19470257361718,1,school|establishment|point_of_interest,"2338, Tambon Huai Khun Ram, Amphoe Phatthana Nikhom, Chang Wat Lopburi 18220, Thailand"
541,14.93677201034513,101.27847727981191,4,school|establishment|point_of_interest,"2243, Tambon Huai Khun Ram, Amphoe Phatthana Nikhom, Chang Wat Lopburi 30130, Thailand"
542,14.93677201034513,101.41810179013646,17,establishment|point_of_interest|hospital,"432 ม.1 ตำบล.ลำพญากลาง Muak Lek District, Saraburi 18180, Thailand"
543,14.93677201034513,101.50187649633119,25,school|establishment|point_of_interest,"หมู่ 17 บ้านทรัพย์ทวี, ตำบลหนองน้ำใส อำเภอสีคิ้ว จังหวัดนครราชสีมา, 30140 Thailand"
544,14.93677201034513,101.5298013983961,9,school|establishment|point_of_interest,"Unnamed Road, Tambon Nong Nam Sai, Amphoe Sikhio, Chang Wat Nakhon Ratchasima, Thailand"
545,14.93677201034513,101.61357610459083,4,school|establishment|point_of_interest,"Unnamed Road Nong Ya Khao, Sikhio District, Nakhon Ratchasima 30140, Thailand"
546,14.93677201034513,101.64150100665574,1,school|establishment|point_of_interest,"Unnamed Road, Tambon Nong Ya Khao, Amphoe Sikhio, Chang Wat Nakhon Ratchasima 30140, Thailand"
549,14.93677201034513,101.7811255169803,6,school|establishment|point_of_interest,"Unnamed Road, Tambon Sema, Amphoe Sung Noen, Chang Wat Nakhon Ratchasima 30170, Thailand"
550,14.93677201034513,101.8090504190452,14,establishment|point_of_interest|hospital,"Unnamed Road Sema, Sung Noen District, Nakhon Ratchasima 30170, Thailand"
551,14.93677201034513,101.83697532111012,6,school|establishment|point_of_interest,"ตำบล บุ่งขี้เหล็ก Tambon Bung Khilek, Amphoe Sung Noen, Chang Wat Nakhon Ratchasima 30170, Thailand"
552,14.93677201034513,101.86490022317503,7,school|establishment|point_of_interest,"Unnamed Road, Tambon Bung Khilek, Amphoe Sung Noen, Chang Wat Nakhon Ratchasima 30170, Thailand"
558,14.93677201034513,102.19999904795395,12,school|establishment|point_of_interest,"Unnamed Road, Tambon Nong Ra Wiang, Amphoe Mueang Nakhon Ratchasima, Chang Wat Nakhon Ratchasima 30000, Thailand"
560,14.93677201034513,102.25584885208377,11,school|establishment|point_of_interest,"2039 Rural Rd, Tambon Nong Yang, Amphoe Chaloem Phra Kiat, Chang Wat Nakhon Ratchasima 30230, Thailand"
562,14.93677201034513,102.47924806860306,5,school|establishment|point_of_interest,"Unnamed Road, Tambon Si La Ko, Amphoe Chakkarat, Chang Wat Nakhon Ratchasima 30230, Thailand"
563,14.93677201034513,102.50717297066797,4,school|establishment|point_of_interest,"Unnamed Road, Tambon Nong Kham, Amphoe Chakkarat, Chang Wat Nakhon Ratchasima 30230, Thailand"
565,14.93677201034513,102.61887257892761,2,school|establishment|point_of_interest,"Unnamed Road, Tambon Hin Dat, Amphoe Huai Thalaeng, Chang Wat Nakhon Ratchasima 30240, Thailand"
566,14.93677201034513,102.73057218718725,5,school|establishment|point_of_interest,"Unnamed Road, Tambon Nong Kathing, Amphoe Lam Plai Mat, Chang Wat Buri Ram 31130, Thailand"
569,14.909792362968464,101.19470082158625,2,school|establishment|point_of_interest,"Unnamed Road, Tambon Wang Muang, Amphoe Wang Muang, Chang Wat Saraburi 18220, Thailand"
570,14.909792362968464,101.2505436105215,2,establishment|store|point_of_interest,"สบ.4024 Tambon Sap Sanun, Amphoe Muak Lek, Chang Wat Saraburi 18220, Thailand"
571,14.909792362968464,101.30638639945676,1,local_government_office|establishment|point_of_interest,"Unnamed Road, Tambon Sap Sanun, Amphoe Muak Lek, Chang Wat Saraburi 30130, Thailand"
572,14.909792362968464,101.44599337179488,11,establishment|point_of_interest|hospital,"Unnamed Road, Tambon Lamphaya Klang, Amphoe Muak Lek, Chang Wat Saraburi 30130, Thailand"
574,14.909792362968464,101.80897149987402,34,establishment|point_of_interest|hospital,"Unnamed Road, Tambon Sema, Amphoe Sung Noen, Chang Wat Nakhon Ratchasima 30170, Thailand"
583,14.909792362968464,102.39532078369461,10,school|establishment|point_of_interest,"Unnamed Road, Tambon Si La Ko, Amphoe Chakkarat, Chang Wat Nakhon Ratchasima 30230, Thailand"
584,14.909792362968464,102.42324217816224,2,school|establishment|point_of_interest,"Unnamed Road, Tambon Si La Ko, Amphoe Chakkarat, Chang Wat Nakhon Ratchasima 30230, Thailand"
585,14.909792362968464,102.50700636156523,2,school|establishment|point_of_interest,"Unnamed Road, Tambon Khlong Mueang, Amphoe Chakkarat, Chang Wat Nakhon Ratchasima 30230, Thailand"
588,14.909792362968464,102.70245612283873,3,school|establishment|point_of_interest,"Unnamed Road, Tambon Nong Kathing, Amphoe Lam Plai Mat, Chang Wat Buri Ram 31130, Thailand"
589,14.909792362968464,102.73037751730635,6,school|establishment|point_of_interest,"Unnamed Road, Tambon Nong Kathing, Amphoe Lam Plai Mat, Chang Wat Buri Ram 31130, Thailand"
590,14.909792362968464,102.75829891177398,3,school|establishment|point_of_interest,"Unnamed Road, Tambon Nong Kathing, Amphoe Lam Plai Mat, Chang Wat Buri Ram 31130, Thailand"
591,14.909792362968464,102.84206309517685,4,school|establishment|point_of_interest,"Unnamed Road, Tambon Nong Don, Amphoe Lam Plai Mat, Chang Wat Buri Ram 31130, Thailand"
592,14.909792362968464,102.8979058841121,1,school|establishment|point_of_interest,"Unnamed Road, Tambon Ban Yang, Amphoe Lam Plai Mat, Chang Wat Buri Ram 31130, Thailand"
593,14.909792362968464,102.95374867304736,1,school|establishment|point_of_interest,"Unnamed Road, Tambon Lum Puk, Amphoe Mueang Buri Ram, Chang Wat Buri Ram 31000, Thailand"
594,14.909792362968464,103.00959146198261,4,establishment|point_of_interest|hospital,"Unnamed Road, Tambon Sakae Phrong, Amphoe Mueang Buri Ram, Chang Wat Buri Ram 31000, Thailand"
595,14.882812715591594,101.22261696703049,1,school|establishment|point_of_interest,"Unnamed Road, Tambon Sap Sanun, Amphoe Muak Lek, Chang Wat Saraburi 18220, Thailand"
596,14.882812715591594,101.25053486097158,4,school|establishment|point_of_interest,"Unnamed Road, Tambon Sap Sanun, Amphoe Muak Lek, Chang Wat Saraburi 18220, Thailand"
597,14.882812715591594,101.27845275491256,26,establishment|point_of_interest|hospital,"Rural Road Saraburi 4005, Tambon Sap Sanun, Amphoe Muak Lek, Chang Wat Saraburi 18220, Thailand"
599,14.882812715591594,101.39012433067649,3,school|establishment|point_of_interest,"256 ต.ลำพญากลาง Muak Lek District, Saraburi 18180, Thailand"
600,14.882812715591594,101.44596011855833,10,establishment|point_of_interest|hospital,"2247, Tambon Lamphaya Klang, Amphoe Muak Lek, Chang Wat Saraburi 30130, Thailand"
608,14.882812715591594,101.86472852767315,21,school|establishment|point_of_interest,"55 หมู่ที่ 14 Mittraphap Rd, Tambon Sung Noen, Amphoe Sung Noen, Chang Wat Nakhon Ratchasima 30170, Thailand"
609,14.882812715591594,101.92056431555511,9,establishment|point_of_interest|hospital,"Unnamed Road, Tambon Na Klang, Amphoe Sung Noen, Chang Wat Nakhon Ratchasima 30380, Thailand"
610,14.882812715591594,101.97640010343707,4,school|establishment|point_of_interest,"ซอย ๗ Tambon Khok Kruat, Amphoe Mueang Nakhon Ratchasima, Chang Wat Nakhon Ratchasima 30280, Thailand"
615,14.882812715591594,102.19974325496491,5,school|establishment|point_of_interest,"Unnamed Road, Tambon Dan Kwian, Amphoe Chok Chai, Chang Wat Nakhon Ratchasima 30190, Thailand"
617,14.882812715591594,102.53475798225668,2,school|establishment|point_of_interest,"Unnamed Road, Tambon Nong Kham, Amphoe Chakkarat, Chang Wat Nakhon Ratchasima 30230, Thailand"
618,14.882812715591594,102.59059377013864,9,establishment|point_of_interest|hospital,"Rural Rd 4035, Tambon Sao Dio, Amphoe Nong Hong, Chang Wat Buri Ram 31240, Thailand"
619,14.882812715591594,102.7860190277255,3,establishment|point_of_interest|hospital,"Unnamed Road, Tambon Thai Samakkhi, Amphoe Nong Hong, Chang Wat Buri Ram 31240, Thailand"
620,14.882812715591594,102.84185481560735,2,school|establishment|point_of_interest,"Unnamed Road, Tambon Nong Don, Amphoe Lam Plai Mat, Chang Wat Buri Ram 31130, Thailand"
621,14.882812715591594,102.9256084974304,1,school|establishment|point_of_interest,"Unnamed Road, Tambon Lum Puk, Amphoe Mueang Buri Ram, Chang Wat Buri Ram 31000, Thailand"
623,14.855833068214526,101.22261172860556,4,establishment|point_of_interest|hospital,"Unnamed Road, Tambon Sap Sanun, Amphoe Muak Lek, Chang Wat Saraburi 18220, Thailand"
625,14.855833068214526,101.50175573341107,1,city_hall|local_government_office|establishment|point_of_interest,"Unnamed Road, Tambon Khlong Phai, Amphoe Sikhio, Chang Wat Nakhon Ratchasima 30340, Thailand"
632,14.855833068214526,101.92047174061963,3,establishment|point_of_interest|hospital,"Unnamed Road, Tambon Na Klang, Amphoe Sung Noen, Chang Wat Nakhon Ratchasima 30380, Thailand"
633,14.855833068214526,102.03212934254191,11,establishment|point_of_interest|hospital,"นม.1020 Tambon Chai Mongkhon, Amphoe Mueang Nakhon Ratchasima, Chang Wat Nakhon Ratchasima 30000, Thailand"
635,14.855833068214526,102.39501654878927,5,school|establishment|point_of_interest,"Unnamed Road, Amphoe Chakkarat, Chang Wat Nakhon Ratchasima, Thailand"
636,14.855833068214526,102.45084534975035,1,school|establishment|point_of_interest,"Unnamed Road, Tambon Si Suk, Amphoe Chakkarat, Chang Wat Nakhon Ratchasima 30230, Thailand"
637,14.855833068214526,102.50667415071155,3,school|establishment|point_of_interest,"Unnamed Road, Tambon Khlong Mueang, Amphoe Chakkarat, Chang Wat Nakhon Ratchasima 30230, Thailand"
638,14.855833068214526,102.56250295167274,1,establishment|point_of_interest|hospital,"Unnamed Road, Tambon Huai Hin, Amphoe Nong Hong, Chang Wat Buri Ram 31240, Thailand"
642,14.828853420837252,101.30633924301969,9,school|establishment|point_of_interest,"สบ.4028 Tambon Nong Yang Sua, Amphoe Muak Lek, Chang Wat Saraburi 18180, Thailand"
643,14.828853420837252,101.39007198526667,1,school|establishment|point_of_interest,"Unnamed Road, Tambon Lamphaya Klang, Amphoe Muak Lek, Chang Wat Saraburi 30130, Thailand"
644,14.828853420837252,101.41798289934911,2,school|establishment|point_of_interest,"Unnamed Road, Tambon Chan Thuek, Amphoe Pak Chong, Chang Wat Nakhon Ratchasima 30130, Thailand"
645,14.828853420837252,101.44589381343155,5,school|establishment|point_of_interest,"Unnamed Road, Tambon Chan Thuek, Amphoe Pak Chong, Chang Wat Nakhon Ratchasima 30130, Thailand"
656,14.828853420837252,102.14366666549063,4,school|establishment|point_of_interest,"Unnamed Road, Tambon Tha Ang, Amphoe Chok Chai, Chang Wat Nakhon Ratchasima 30190, Thailand"
657,14.828853420837252,102.22739940773783,8,school|establishment|point_of_interest,"Unnamed Road, Tambon Lalom Mai Phatthana, Amphoe Chok Chai, Chang Wat Nakhon Ratchasima 30190, Thailand"
658,14.828853420837252,102.36695397814958,2,establishment|store|point_of_interest|food,"นม.2039 Tambon Lung Kwao, Amphoe Nong Bunnak, Chang Wat Nakhon Ratchasima 30410, Thailand"
659,14.828853420837252,102.39486489223202,7,school|establishment|point_of_interest,"Unnamed Road, Tambon Saraphi, Amphoe Nong Bunnak, Chang Wat Nakhon Ratchasima 30410, Thailand"
660,14.828853420837252,102.42277580631435,1,city_hall|local_government_office|establishment|point_of_interest,"Unnamed Road, Tambon Saraphi, Amphoe Nong Bunnak, Chang Wat Nakhon Ratchasima 30410, Thailand"
661,14.828853420837252,102.478597634479,3,school|establishment|point_of_interest,"Unnamed Road, Tambon Khlong Mueang, Amphoe Chakkarat, Chang Wat Nakhon Ratchasima 30230, Thailand"
662,14.828853420837252,102.50650854856133,9,school|establishment|point_of_interest,"Unnamed Road, Tambon Khlong Mueang, Amphoe Chakkarat, Chang Wat Nakhon Ratchasima 30230, Thailand"
663,14.828853420837252,102.53441946264365,2,school|establishment|point_of_interest,"Unnamed Road, Tambon Khlong Mueang, Amphoe Chakkarat, Chang Wat Nakhon Ratchasima 30230, Thailand"
664,14.828853420837252,102.56233037672598,1,establishment|point_of_interest|hospital,"Unnamed Road, Tambon Khok Sung, Amphoe Nong Ki, Chang Wat Buri Ram 31210, Thailand"
665,14.828853420837252,102.61815220489063,3,establishment|point_of_interest|hospital,"บร.4050 Tambon Nong Chai Si, Amphoe Nong Hong, Chang Wat Buri Ram 31240, Thailand"
666,14.828853420837252,102.72979586122005,3,school|establishment|point_of_interest,"Unnamed Road, Tambon Mueang Fai, Amphoe Nong Hong, Chang Wat Buri Ram 31240, Thailand"
667,14.828853420837252,102.75770677530238,3,school|establishment|point_of_interest,"Unnamed Road, Tambon Mueang Fai, Amphoe Nong Hong, Chang Wat Buri Ram 31240, Thailand"
669,14.828853420837252,103.00890500204412,4,school|establishment|point_of_interest,"Unnamed Road, Tambon Mueang Fang, Amphoe Mueang Buri Ram, Chang Wat Buri Ram 31000, Thailand"
670,14.801873773459784,101.27841615300997,7,school|establishment|point_of_interest,"2224, Tambon Nong Yang Sua, Amphoe Muak Lek, Chang Wat Saraburi 18180, Thailand"
672,14.801873773459784,101.44586076146254,2,school|establishment|point_of_interest,"Unnamed Road, Tambon Chan Thuek, Amphoe Pak Chong, Chang Wat Nakhon Ratchasima 30130, Thailand"
673,14.801873773459784,101.47376819620456,4,school|establishment|point_of_interest,"Unnamed Road, Tambon Chan Thuek, Amphoe Pak Chong, Chang Wat Nakhon Ratchasima 30130, Thailand"
674,14.801873773459784,101.55749050043096,6,school|establishment|point_of_interest,"Unnamed Road Khlong Phai, Sikhio District, Nakhon Ratchasima 30340, Thailand"
675,14.801873773459784,101.64121280465736,1,supermarket|establishment|store|point_of_interest|grocery_or_supermarket|food,"Unnamed Road, Tambon Lat Bua Khao, Amphoe Sikhio, Chang Wat Nakhon Ratchasima 30340, Thailand"
676,14.801873773459784,101.69702767414162,5,school|establishment|point_of_interest,"Unnamed Road, Tambon Mittraphap, Amphoe Sikhio, Chang Wat Nakhon Ratchasima 30140, Thailand"
677,14.801873773459784,101.72493510888364,2,school|establishment|point_of_interest,"Unnamed Road, Tambon Makluea Mai, Amphoe Sung Noen, Chang Wat Nakhon Ratchasima 30170, Thailand"
679,14.801873773459784,101.80865741310993,1,school|establishment|point_of_interest,"Unnamed Road, Tambon Makluea Kao, Amphoe Sung Noen, Chang Wat Nakhon Ratchasima 30170, Thailand"
682,14.801873773459784,102.17145406475743,23,establishment|point_of_interest|hospital|veterinary_care,"ถนนราชสีมา - โชคชัย Tambon Tha Ang, Amphoe Chok Chai, Chang Wat Nakhon Ratchasima 30190, Thailand"
684,14.801873773459784,102.33889867321011,5,school|establishment|point_of_interest,"Unnamed Road, Tambon Lung Kwao, Amphoe Nong Bunnak, Chang Wat Nakhon Ratchasima 30410, Thailand"
685,14.801873773459784,102.36680610795213,5,school|establishment|point_of_interest,"Unnamed Road, Tambon Lung Kwao, Amphoe Nong Bunnak, Chang Wat Nakhon Ratchasima 30410, Thailand"
686,14.801873773459784,102.45052841217853,6,school|establishment|point_of_interest,"Unnamed Road, Tambon Khok Sawang, Amphoe Nong Ki, Chang Wat Buri Ram 31210, Thailand"
687,14.801873773459784,102.7016953248575,2,school|establishment|point_of_interest,"Unnamed Road, Tambon Mueang Phai, Amphoe Nong Ki, Chang Wat Buri Ram 31210, Thailand"
688,14.801873773459784,102.78541762908378,1,school|establishment|point_of_interest,"Unnamed Road, Tambon Cho Phaka, Amphoe Chamni, Chang Wat Buri Ram 31110, Thailand"
689,14.774894126082117,101.19469211440298,4,establishment|store|point_of_interest,"Soi Pak Khlong-wang Muang, Tambon Nong Yang Sua, Amphoe Muak Lek, Chang Wat Saraburi 18180, Thailand"
692,14.774894126082117,101.44582777650339,15,school|establishment|point_of_interest,"Unnamed Road, Tambon Chan Thuek, Amphoe Pak Chong, Chang Wat Nakhon Ratchasima 30130, Thailand"
693,14.774894126082117,101.80857928842602,2,school|establishment|point_of_interest,"Unnamed Road, Tambon Makluea Kao, Amphoe Sung Noen, Chang Wat Nakhon Ratchasima 30170, Thailand"
694,14.774894126082117,101.83648325088154,1,cafe|establishment|store|point_of_interest|food,"Unnamed Road, Tambon Makluea Kao, Amphoe Sung Noen, Chang Wat Nakhon Ratchasima 30170, Thailand"
696,14.774894126082117,101.92019513824835,5,convenience_store|establishment|store|point_of_interest|food,"Unnamed Road, Tambon Nong Ta Kai, Amphoe Sung Noen, Chang Wat Nakhon Ratchasima 30380, Thailand"
700,14.774894126082117,102.22713872525958,1,electronics_store|establishment|store|point_of_interest,"Unnamed Road, Tambon Tha Yiam, Amphoe Chok Chai, Chang Wat Nakhon Ratchasima 30190, Thailand"
702,14.774894126082117,102.58989023718232,2,establishment|point_of_interest|hospital,"2166, Tambon Mueang Phai, Amphoe Nong Ki, Chang Wat Buri Ram 31210, Thailand"
703,14.774894126082117,102.7573140119157,5,establishment|point_of_interest|hospital,"Unnamed Road Laluat, Chamni District, Buri Ram 31110, Thailand"
706,14.774894126082117,102.95264174910471,4,school|establishment|point_of_interest,"Unnamed Road, Tambon Song Hong, Amphoe Mueang Buri Ram, Chang Wat Buri Ram 31000, Thailand"
708,14.747914478704251,101.19469038354589,1,establishment|store|point_of_interest,"2224, Tambon Phaya Yen, Amphoe Pak Chong, Chang Wat Nakhon Ratchasima 30320, Thailand"
709,14.747914478704251,101.22259088076453,4,establishment|point_of_interest|hospital,"2273, Tambon Nong Yang Sua, Amphoe Muak Lek, Chang Wat Saraburi 18180, Thailand"
710,14.747914478704251,101.36209336685783,7,school|establishment|point_of_interest,"2243, Tambon Pak Chong, Amphoe Pak Chong, Chang Wat Nakhon Ratchasima 30130, Thailand"
715,14.747914478704251,101.7806008251373,1,establishment|store|point_of_interest|grocery_or_supermarket|food,"Unnamed Road, Tambon Makluea Kao, Amphoe Sung Noen, Chang Wat Nakhon Ratchasima 30170, Thailand"
716,14.747914478704251,101.86430231679333,3,establishment|point_of_interest|hospital,"Unnamed Road, Tambon Nong Ta Kai, Amphoe Sung Noen, Chang Wat Nakhon Ratchasima 30380, Thailand"
719,14.747914478704251,102.0038048028864,10,school|establishment|point_of_interest,"Unnamed Road, Tambon Ta Khu, Amphoe Pak Thong Chai, Chang Wat Nakhon Ratchasima 30150, Thailand"
723,14.747914478704251,102.4223122611661,1,school|establishment|point_of_interest,"Unnamed Road, Tambon Ban Mai, Amphoe Nong Bunnak, Chang Wat Nakhon Ratchasima 30410, Thailand"
724,14.747914478704251,102.47811325560338,2,school|establishment|point_of_interest,"บร.2040 Tambon Bu Krasang, Amphoe Nong Ki, Chang Wat Buri Ram 30410, Thailand"
725,14.747914478704251,102.67341673613385,2,establishment|point_of_interest|hospital,"Unnamed Road, Tambon Kan Luang, Amphoe Nang Rong, Chang Wat Buri Ram 31110, Thailand"
727,14.747914478704251,102.89662071388295,3,school|establishment|point_of_interest,"Rural Rd, Tambon Khok Sa-nuan, Amphoe Chamni, Chang Wat Buri Ram 31110, Thailand"
728,14.747914478704251,102.92452121110159,2,school|establishment|point_of_interest,"บ้านเลขที่ 1 หมู่ที่ 1, ถนนรพช.บ้านตะโก-ระนามพลวง, ตำบลหนองโสน อำเภอนางรอง จังหวัดบุรีรัมย์, 31110 Thailand"
729,14.747914478704251,102.98032220553887,1,school|establishment|point_of_interest,"Unnamed Road, Tambon Si Liam, Amphoe Prakhon Chai, Chang Wat Buri Ram 31140, Thailand"
730,14.747914478704251,103.00822270275751,5,establishment|point_of_interest|hospital,"Unnamed Road, Tambon Si Liam, Amphoe Prakhon Chai, Chang Wat Buri Ram 31140, Thailand"
731,14.720934831326185,101.25048273426489,1,establishment|store|point_of_interest|grocery_or_supermarket|food,"345, ตำบล พญาเย็น ตำบล กลางดง อำเภอ ปากช่อง นครราชสีมา 30320, Thailand"
732,14.720934831326185,101.33417385134635,3,establishment|point_of_interest|hospital,"Unnamed Road, Tambon Pak Chong, Amphoe Pak Chong, Chang Wat Nakhon Ratchasima 30130, Thailand"
736,14.720934831326185,101.47365904648211,5,establishment|point_of_interest|hospital,"Moo 11, Tambon Nong Sarai, Amphoe Pak Chong, Nakhon Ratchasima, 30130, Thailand"
737,14.720934831326185,101.69683535869933,2,establishment|store|point_of_interest|grocery_or_supermarket|food,"Unnamed Road, Tambon Makluea Mai, Amphoe Sung Noen, Chang Wat Nakhon Ratchasima 30170, Thailand"
738,14.720934831326185,101.75262943675364,3,school|establishment|point_of_interest,"Unnamed Road, Tambon Takhop, Amphoe Pak Thong Chai, Chang Wat Nakhon Ratchasima 30150, Thailand"
740,14.720934831326185,101.92001167091655,1,establishment|store|point_of_interest|grocery_or_supermarket|food,"Unnamed Road, Tambon Ta Khu, Amphoe Pak Thong Chai, Chang Wat Nakhon Ratchasima 30150, Thailand"
741,14.720934831326185,102.00370278799801,33,school|establishment|point_of_interest,"Unnamed Road, Tambon Ta Khu, Amphoe Pak Thong Chai, Chang Wat Nakhon Ratchasima 30150, Thailand"
742,14.720934831326185,102.03159982702516,37,health|establishment|point_of_interest|hospital,"Unnamed Road, Tambon Mueang Pak, Amphoe Pak Thong Chai, Chang Wat Nakhon Ratchasima 30150, Thailand"
743,14.720934831326185,102.08739390507947,3,school|establishment|point_of_interest,"Unnamed Road, Tambon Khok Thai, Amphoe Pak Thong Chai, Chang Wat Nakhon Ratchasima 30150, Thailand"
746,14.720934831326185,102.28267317826953,2,school|establishment|point_of_interest,"Unnamed Road, Tambon Nong Hua Rat, Amphoe Nong Bunnak, Chang Wat Nakhon Ratchasima 30410, Thailand"
749,14.720934831326185,102.58954060756821,15,establishment|point_of_interest|hospital,"Unnamed Road, Tambon Yoei Prasat, Amphoe Nong Ki, Chang Wat Buri Ram 31210, Thailand"
750,14.720934831326185,102.61743764659536,2,establishment|point_of_interest|hospital,"Unnamed Road, Tambon Tha Pho Chai, Amphoe Nong Ki, Chang Wat Buri Ram 31210, Thailand"
751,14.720934831326185,102.72902580270397,3,establishment|point_of_interest|hospital,"Unnamed Road, Tambon Kan Luang, Amphoe Nang Rong, Chang Wat Buri Ram 31110, Thailand"
752,14.720934831326185,102.75692284173113,2,school|establishment|point_of_interest,"Unnamed Road, Tambon Ban Sing, Amphoe Nang Rong, Chang Wat Buri Ram 31110, Thailand"
760,14.693955183947926,101.50151639904152,3,school|establishment|point_of_interest,"Unnamed Road, Tambon Nong Sarai, Amphoe Pak Chong, Chang Wat Nakhon Ratchasima 30130, Thailand"
761,14.693955183947926,101.5294099869185,11,school|establishment|point_of_interest,"Unnamed Road, Tambon Wang Sai, Amphoe Pak Chong, Chang Wat Nakhon Ratchasima 30130, Thailand"
763,14.693955183947926,102.05938815658101,10,school|establishment|point_of_interest,"Unnamed Road, Tambon Nok Ok, Amphoe Pak Thong Chai, Chang Wat Nakhon Ratchasima 30150, Thailand"
765,14.693955183947926,102.2825368595968,3,school|establishment|point_of_interest,"Unnamed Road, Tambon Nong Hua Rat, Amphoe Nong Bunnak, Chang Wat Nakhon Ratchasima 30410, Thailand"
766,14.693955183947926,102.44989838685865,10,school|establishment|point_of_interest,"Unnamed Road, Tambon Nong Bunnak, Amphoe Nong Bunnak, Chang Wat Nakhon Ratchasima 30410, Thailand"
768,14.693955183947926,102.58936632624352,1,school|establishment|point_of_interest,"Unnamed Road, Tambon Tha Pho Chai, Amphoe Nong Ki, Chang Wat Buri Ram 31210, Thailand"
769,14.693955183947926,102.6172599141205,5,establishment|store|point_of_interest,"Unnamed Road, Tambon Tha Pho Chai, Amphoe Nong Ki, Chang Wat Buri Ram 31210, Thailand"
771,14.693955183947926,102.70094067775142,2,school|establishment|point_of_interest,"Unnamed Road, Tambon Lam Sai Yong, Amphoe Nang Rong, Chang Wat Buri Ram 31110, Thailand"
772,14.693955183947926,102.7288342656284,2,establishment|store|point_of_interest|grocery_or_supermarket|food,"Unnamed Road, Tambon Kan Luang, Amphoe Nang Rong, Chang Wat Buri Ram 31110, Thailand"
775,14.693955183947926,102.86830220501326,2,establishment|store|point_of_interest|clothing_store,"Unnamed Road, Tambon Nong Yai Phim, Amphoe Nang Rong, Chang Wat Buri Ram 31110, Thailand"
776,14.693955183947926,102.89619579289024,8,establishment|point_of_interest|hospital,"Unnamed Road, Tambon Nong Kong, Amphoe Nang Rong, Chang Wat Buri Ram 31110, Thailand"
787,14.666975536569465,101.66881765608287,8,school|establishment|point_of_interest,"Unnamed Road, Tambon Khlong Muang, Amphoe Pak Chong, Chang Wat Nakhon Ratchasima 30130, Thailand"
788,14.666975536569465,101.80826837490235,4,school|establishment|point_of_interest,"50 หมู่ที่ 16 Tambon Takhop, Amphoe Pak Thong Chai, Chang Wat Nakhon Ratchasima 30150, Thailand"
789,14.666975536569465,101.97560923748574,7,school|establishment|point_of_interest,"Unnamed Road, Amphoe Pak Thong Chai, Chang Wat Nakhon Ratchasima 30150, Thailand"
790,14.666975536569465,102.05927966877744,11,school|establishment|point_of_interest,"Unnamed Road, Tambon Kasem Sap, Amphoe Pak Thong Chai, Chang Wat Nakhon Ratchasima 30150, Thailand"
791,14.666975536569465,102.14295010006913,5,school|establishment|point_of_interest,"Unnamed Road, Tambon Tha Lat Khao, Amphoe Chok Chai, Chang Wat Nakhon Ratchasima 30190, Thailand"
794,14.666975536569465,102.31029096265252,5,establishment|point_of_interest|hospital,"Unnamed Road, Tambon Nong Mai Phai, Amphoe Nong Bunnak, Chang Wat Nakhon Ratchasima 30410, Thailand"
795,14.666975536569465,102.39396139394421,12,school|establishment|point_of_interest,"2309, Tambon Nong Ta Kai, Amphoe Nong Bunnak, Chang Wat Nakhon Ratchasima 30410, Thailand"
803,14.666975536569465,102.89598398169437,3,establishment|point_of_interest|hospital,"52 2 ที่ทำการผู้ใหญ่บ้านหมู่ที่ 9 Nang Rong District, Buri Ram, Thailand"
804,14.666975536569465,102.92387412545827,2,school|establishment|point_of_interest,"บร.2014 Tambon E-san Khet, Amphoe Chaloem Phra Kiat, Chang Wat Buri Ram 31110, Thailand"
811,14.639995889190812,101.61298409557128,13,establishment|point_of_interest|hospital,"24 หมู่ 16 ต.คลองม่วง Amphoe Pak Chong, Chang Wat Nakhon Ratchasima 30130, Thailand"
812,14.639995889190812,101.64087080225522,4,school|establishment|point_of_interest,"Thanon DPT., Tambon Khlong Muang, Amphoe Pak Chong, Chang Wat Nakhon Ratchasima 30130, Thailand"
813,14.639995889190812,101.66875750893894,8,school|establishment|point_of_interest,"Unnamed Road, Tambon Khlong Muang, Amphoe Pak Chong, Chang Wat Nakhon Ratchasima 30130, Thailand"
814,14.639995889190812,102.42169858940235,2,establishment|point_of_interest|hospital,"2309, Tambon Nong Ta Kai, Amphoe Nong Bunnak, Chang Wat Nakhon Ratchasima 30410, Thailand"
815,14.639995889190812,102.44958529608618,3,establishment|point_of_interest|hospital,"Unnamed Road, Tambon Nong Bunnak, Amphoe Nong Bunnak, Chang Wat Nakhon Ratchasima 30410, Thailand"
816,14.639995889190812,102.644792242873,1,electronics_store|establishment|store|point_of_interest,"Unnamed Road, Tambon Nong Bot, Amphoe Nang Rong, Chang Wat Buri Ram 31110, Thailand"
817,14.639995889190812,102.67267894955683,8,establishment|point_of_interest|hospital,"Unnamed Road, Tambon Nong Bot, Amphoe Nang Rong, Chang Wat Buri Ram 31110, Thailand"
821,14.639995889190812,102.9236593097113,2,school|establishment|point_of_interest,"Moo 13, Tambon Isan Khet, Amphoe Chaloem Phra Kiat, Buri Ram, 31110, Thailand"
823,14.613016241811966,101.44563127173853,7,establishment|point_of_interest|hospital,"ถนน โยธาธิการ นครราชสีมา 2049 Tambon Khanong Phra, Amphoe Pak Chong, Chang Wat Nakhon Ratchasima 30130, Thailand"
826,14.613016241811966,101.55716437826925,1,establishment|store|point_of_interest|clothing_store,"Unnamed Road, Tambon Khanong Phra, Amphoe Pak Chong, Chang Wat Nakhon Ratchasima 30130, Thailand"
829,14.613016241811966,102.003296804392,14,school|establishment|point_of_interest,"Unnamed Road, Tambon Phu Luang, Amphoe Pak Thong Chai, Chang Wat Nakhon Ratchasima 30150, Thailand"
830,14.613016241811966,102.03118008102467,19,school|establishment|point_of_interest,"Unnamed Road, Tambon Sakae Rat, Amphoe Pak Thong Chai, Chang Wat Nakhon Ratchasima 30150, Thailand"
831,14.613016241811966,102.2542462940861,6,school|establishment|point_of_interest,"Unnamed Road, Chok Chai District, Chang Wat Nakhon Ratchasima, Thailand"
834,14.613016241811966,102.61672889031058,5,establishment|point_of_interest|hospital,"Unnamed Road, Tambon Krokkaeo, Amphoe Non Suwan, Chang Wat Buri Ram 31110, Thailand"
835,14.613016241811966,102.64461216694326,2,establishment|point_of_interest|hospital,"Unnamed Road, Tambon Krokkaeo, Amphoe Non Suwan, Chang Wat Buri Ram 31110, Thailand"
840,14.613016241811966,103.00709476316774,2,establishment|store|point_of_interest|food,"Unnamed Road, Tambon Tako Ta Phi, Amphoe Prakhon Chai, Chang Wat Buri Ram 31140, Thailand"
841,14.586036594432919,101.25043977949895,3,establishment|store|point_of_interest|grocery_or_supermarket|food,"999 หมู่ 9 ต.พญาเย็น ปากช่อง Nakhon Ratchasima 30320, Thailand"
843,14.586036594432919,101.33407934031766,1,establishment|store|point_of_interest|clothing_store,"Unnamed Road, Tambon Nong Nam Daeng, Amphoe Pak Chong, Chang Wat Nakhon Ratchasima 30130, Thailand"
844,14.586036594432919,101.44559875474249,6,school|establishment|point_of_interest,"Unnamed Road, Tambon Khanong Phra, Amphoe Pak Chong, Chang Wat Nakhon Ratchasima 30130, Thailand"
845,14.586036594432919,101.72439729080497,12,establishment|point_of_interest|hospital,"Unnamed Road, Tambon Raroeng, Amphoe Wang Nam Khiao, Chang Wat Nakhon Ratchasima 30150, Thailand"
846,14.586036594432919,101.86379655883604,1,school|establishment|point_of_interest,"Unnamed Road, Tambon Lam Nang Kaeo, Amphoe Pak Thong Chai, Chang Wat Nakhon Ratchasima 30150, Thailand"
847,14.586036594432919,101.8916764124424,4,school|establishment|point_of_interest,"นม.1021 Tambon Lam Nang Kaeo, Amphoe Pak Thong Chai, Chang Wat Nakhon Ratchasima 30150, Thailand"
848,14.586036594432919,102.14259509489841,5,school|establishment|point_of_interest,"นม.3002 Tambon Khon Buri, Amphoe Khon Buri, Chang Wat Nakhon Ratchasima 30250, Thailand"
849,14.586036594432919,102.25411450932347,5,school|establishment|point_of_interest,"Unnamed Road,, ตำบล แชะ อำเภอ ครบุรี นครราชสีมา 30250, Thailand"
851,14.586036594432919,102.70019216702315,8,establishment|point_of_interest|hospital,"Unnamed Road, Tambon Thung Saeng Thong, Amphoe Nang Rong, Chang Wat Buri Ram 31110, Thailand"
854,14.586036594432919,102.97899070308563,7,establishment|point_of_interest|hospital,"Unnamed Road, Tambon Prathat Bu, Amphoe Prakhon Chai, Chang Wat Buri Ram 31140, Thailand"
857,14.559056947053662,101.25043124123863,8,school|establishment|point_of_interest,"Unnamed Road, Tambon Phaya Yen, Amphoe Pak Chong, Chang Wat Nakhon Ratchasima 30320, Thailand"
858,14.559056947053662,101.27830767883916,6,school|establishment|point_of_interest,"Unnamed Road, Tambon Phaya Yen, Amphoe Pak Chong, Chang Wat Nakhon Ratchasima 30320, Thailand"
859,14.559056947053662,101.47344274204193,3,school|establishment|point_of_interest,"94 หมู่ที่ 1 ถนน บุ่งเตย - สระน้ำใส Tambon Mu Si, Amphoe Pak Chong, Chang Wat Nakhon Ratchasima 30130, Thailand"
860,14.559056947053662,101.50131917964245,3,school|establishment|point_of_interest,"Unnamed Road, Tambon Pong Ta Long, Amphoe Pak Chong, Chang Wat Nakhon Ratchasima 30130, Thailand"
861,14.559056947053662,101.55707205484327,11,school|establishment|point_of_interest,"Unnamed Road, Tambon Wang Katha, Amphoe Pak Chong, Chang Wat Nakhon Ratchasima 30130, Thailand"
862,14.559056947053662,101.6407013676444,1,supermarket|establishment|store|point_of_interest|grocery_or_supermarket|food,"Unnamed Road, Tambon Wang Katha, Amphoe Pak Chong, Chang Wat Nakhon Ratchasima, Thailand"
866,14.559056947053662,102.08672436925099,5,establishment|point_of_interest|hospital,"นม.3115 Tambon Khon Buri, Amphoe Khon Buri, Chang Wat Nakhon Ratchasima 30250, Thailand"
868,14.559056947053662,102.30973587005428,1,school|establishment|point_of_interest,"Unnamed Road, Tambon Chae, Amphoe Khon Buri, Chang Wat Nakhon Ratchasima 30250, Thailand"
869,14.559056947053662,102.3376123076547,8,school|establishment|point_of_interest,"Unnamed Road, Tambon Map Tako En, Amphoe Khon Buri, Chang Wat Nakhon Ratchasima 30250, Thailand"
870,14.559056947053662,102.44911805805646,4,school|establishment|point_of_interest,"Unnamed Road, Tambon Suk Phai Bun, Amphoe Soeng Sang, Chang Wat Nakhon Ratchasima 30330, Thailand"
872,14.559056947053662,102.53274737085769,15,establishment|point_of_interest|hospital,"บร.2016 Tambon Dong I Chan, Amphoe Non Suwan, Chang Wat Buri Ram 31110, Thailand"
873,14.559056947053662,102.58850024605852,2,establishment|point_of_interest|hospital,"Unnamed Road, Tambon Non Suwan, Amphoe Non Suwan, Chang Wat Buri Ram 31110, Thailand"
874,14.559056947053662,102.67212955885975,3,school|establishment|point_of_interest,"Unnamed Road, Tambon Chum Saeng, Amphoe Nang Rong, Chang Wat Buri Ram 31110, Thailand"
876,14.559056947053662,102.89514105966305,11,school|establishment|point_of_interest,"Unnamed Road, Tambon Charoen Suk, Amphoe Chaloem Phra Kiat, Chang Wat Buri Ram 31110, Thailand"
877,14.532077299674228,101.25042272051883,4,school|establishment|point_of_interest,"Yothathikan Nakhon Ratchasima Ban Non Kradon-ban Sap Tai Rd, Tambon Phaya Yen, Amphoe Pak Chong, Chang Wat Nakhon Ratchasima 30320, Thailand"
878,14.532077299674228,101.36191483496373,21,establishment|point_of_interest|hospital,"Unnamed Road, Tambon Mu Si, Amphoe Pak Chong, Chang Wat Nakhon Ratchasima 30130, Thailand"
879,14.532077299674228,101.38978786357507,26,establishment|point_of_interest|hospital,"334 Thanaratch Rd, Tambon Mu Si, Amphoe Pak Chong, Chang Wat Nakhon Ratchasima 30130, Thailand"
880,14.532077299674228,101.47340694940863,5,establishment|point_of_interest|hospital,"Unnamed Road Mu Si, Pak Chong District, Nakhon Ratchasima 30130, Thailand"
881,14.532077299674228,101.50127997801997,5,establishment|store|point_of_interest|grocery_or_supermarket|food,"Unnamed Road, Tambon Pong Ta Long, Amphoe Pak Chong, Chang Wat Nakhon Ratchasima 30130, Thailand"
882,14.532077299674228,101.52915300663108,2,school|establishment|point_of_interest,"Unnamed Road, Tambon Pong Ta Long, Amphoe Pak Chong, Chang Wat Nakhon Ratchasima 30130, Thailand"
883,14.532077299674228,101.61277209246487,5,school|establishment|point_of_interest,"392 ม.4, วังกะทะ, Amphoe Pak Chong, Chang Wat Nakhon Ratchasima 30130, Thailand"
884,14.532077299674228,101.7800102641321,1,school|establishment|point_of_interest,"Unnamed Road, Tambon Takhop, Amphoe Pak Thong Chai, Chang Wat Nakhon Ratchasima 30370, Thailand"
889,14.532077299674228,102.03086752163313,1,school|establishment|point_of_interest,"Unnamed Road, Tambon Udom Sap, Amphoe Wang Nam Khiao, Chang Wat Nakhon Ratchasima 30370, Thailand"
890,14.532077299674228,102.28172477913427,6,school|establishment|point_of_interest,"Unnamed Road, Tambon Chae, Amphoe Khon Buri, Chang Wat Nakhon Ratchasima 30250, Thailand"
891,14.532077299674228,102.36534386496794,1,school|establishment|point_of_interest,"23ม.6ต Sa Wan Phaya, Khon Buri District, Nakhon Ratchasima, Thailand"
894,14.532077299674228,102.61620112246896,2,establishment|point_of_interest|hospital,"Unnamed Road, Tambon Non Suwan, Amphoe Non Suwan, Chang Wat Buri Ram 31110, Thailand"
895,14.532077299674228,102.64407415108008,2,establishment|home_goods_store|store|point_of_interest,"Unnamed Road, Tambon Non Suwan, Amphoe Non Suwan, Chang Wat Buri Ram 31110, Thailand"
896,14.532077299674228,102.67194717969141,3,establishment|point_of_interest|hospital,"Unnamed Road, Tambon Sap Phraya, Amphoe Nang Rong, Chang Wat Buri Ram 31110, Thailand"
897,14.532077299674228,102.69982020830264,5,establishment|point_of_interest|hospital,"Unnamed Road, Tambon Sap Phraya, Amphoe Nang Rong, Chang Wat Buri Ram 31110, Thailand"
899,14.505097652294591,101.41763197713601,3,establishment|store|point_of_interest|food,"Unnamed Road, Tambon Mu Si, Amphoe Pak Chong, Chang Wat Nakhon Ratchasima 30130, Thailand"
900,14.505097652294591,101.47337123040506,5,establishment|point_of_interest|hospital,"Unnamed Road, Tambon Mu Si, Amphoe Pak Chong, Chang Wat Nakhon Ratchasima 30130, Thailand"
901,14.505097652294591,101.50124085703953,5,establishment|home_goods_store|store|point_of_interest,"Unnamed Road, Tambon Pong Ta Long, Amphoe Pak Chong, Chang Wat Nakhon Ratchasima 30130, Thailand"
902,14.505097652294591,101.529110483674,3,school|establishment|point_of_interest,"Unnamed Road, Tambon Pong Ta Long, Amphoe Pak Chong, Chang Wat Nakhon Ratchasima 30130, Thailand"
906,14.505097652294591,102.19798152290139,2,city_hall|local_government_office|establishment|point_of_interest,"Unnamed Road, Tambon Chorakhe Hin, Amphoe Khon Buri, Chang Wat Nakhon Ratchasima 30250, Thailand"
908,14.505097652294591,102.47667778924608,7,school|establishment|point_of_interest,"Unnamed Road, Tambon Suk Phai Bun, Amphoe Soeng Sang, Chang Wat Nakhon Ratchasima 30330, Thailand"
909,14.505097652294591,102.50454741588055,1,school|establishment|point_of_interest,"Unnamed Road, Tambon Kut Bot, Amphoe Soeng Sang, Chang Wat Nakhon Ratchasima 30330, Thailand"
912,14.505097652294591,102.89472218876313,1,school|establishment|point_of_interest,"Unnamed Road, Tambon Thawon, Amphoe Chaloem Phra Kiat, Chang Wat Buri Ram 31170, Thailand"
913,14.505097652294591,102.9225918153976,12,school|establishment|point_of_interest,"Unnamed Road, Tambon Yai Yaem Watthana, Amphoe Chaloem Phra Kiat, Chang Wat Buri Ram 31170, Thailand"
914,14.505097652294591,102.97833106866653,7,establishment|point_of_interest|hospital,"บร.3054 Tambon Chorakhe Mak, Amphoe Prakhon Chai, Chang Wat Buri Ram 31140, Thailand"
916,14.478118004914762,101.64053297498594,4,school|establishment|point_of_interest,"Unnamed Road, Tambon Pong Ta Long, Amphoe Pak Chong, Chang Wat Nakhon Ratchasima 30130, Thailand"
917,14.478118004914762,101.66839920665211,1,establishment|store|point_of_interest|grocery_or_supermarket|food,"Unnamed Road, Tambon Wang Mi, Amphoe Wang Nam Khiao, Chang Wat Nakhon Ratchasima 30130, Thailand"
918,14.478118004914762,101.72413166998444,2,establishment|store|point_of_interest,"Unnamed Road, Tambon Wang Katha, Amphoe Pak Chong, Chang Wat Nakhon Ratchasima 30370, Thailand"
919,14.478118004914762,101.77986413331678,7,school|establishment|point_of_interest,"Unnamed Road, Tambon Wang Mi, Amphoe Wang Nam Khiao, Chang Wat Nakhon Ratchasima 30370, Thailand"
920,14.478118004914762,101.83559659664911,1,school|establishment|point_of_interest,"Unnamed Road, Tambon Wang Nam Khiao, Amphoe Wang Nam Khiao, Chang Wat Nakhon Ratchasima 30370, Thailand"
921,14.478118004914762,102.16999137664311,1,courthouse|local_government_office|establishment|point_of_interest,"Unnamed Road, Tambon Chorakhe Hin, Amphoe Khon Buri, Chang Wat Nakhon Ratchasima 30250, Thailand"
923,14.478118004914762,102.28145630330778,4,school|establishment|point_of_interest,"Unnamed Road, Tambon Chaliang, Amphoe Khon Buri, Chang Wat Nakhon Ratchasima 30250, Thailand"
925,14.478118004914762,102.47651992497094,10,school|establishment|point_of_interest,"Unnamed Road, Tambon Suk Phai Bun, Amphoe Soeng Sang, Chang Wat Nakhon Ratchasima 30330, Thailand"
926,14.478118004914762,102.50438615663711,2,school|establishment|point_of_interest,"Unnamed Road, Suk Phai Bun, Amphoe Soeng Sang, Chang Wat Nakhon Ratchasima 30330, Thailand"
927,14.478118004914762,102.56011861996944,2,school|establishment|point_of_interest,"Unnamed Road, Tambon Kut Bot, Amphoe Soeng Sang, Chang Wat Nakhon Ratchasima 30330, Thailand"
928,14.478118004914762,102.61585108330178,3,school|establishment|point_of_interest,"บร.3052 Tambon Khok Mamuang, Amphoe Pakham, Chang Wat Buri Ram 31220, Thailand"
929,14.478118004914762,102.67158354663411,6,establishment|point_of_interest|hospital,"Unnamed Road, Tambon Thai Charoen, Amphoe Pakham, Chang Wat Buri Ram 31220, Thailand"
932,14.478118004914762,102.81091470496494,3,school|establishment|point_of_interest,"Unnamed Road, Tambon Khok Wan, Amphoe Lahan Sai, Chang Wat Buri Ram 31170, Thailand"
933,14.478118004914762,102.86664716829716,1,establishment|store|point_of_interest|grocery_or_supermarket|food,"Unnamed Road, Tambon Khok Wan, Amphoe Lahan Sai, Chang Wat Buri Ram 31170, Thailand"
935,14.451138357534736,101.64047707533098,1,establishment|store|point_of_interest,"Unnamed Road, Tambon Pong Ta Long, Amphoe Pak Chong, Chang Wat Nakhon Ratchasima 30130, Thailand"
936,14.451138357534736,101.6683399190332,6,school|establishment|point_of_interest,"นม.3052 Tambon Wang Mi, Amphoe Wang Nam Khiao, Chang Wat Nakhon Ratchasima 30370, Thailand"
937,14.451138357534736,101.72406560643765,5,school|establishment|point_of_interest,"Unnamed Road, Tambon Wang Mi, Amphoe Wang Nam Khiao, Chang Wat Nakhon Ratchasima 30370, Thailand"
938,14.451138357534736,101.75192845013987,5,school|establishment|point_of_interest,"Unnamed Road, Tambon Wang Mi, Amphoe Wang Nam Khiao, Chang Wat Nakhon Ratchasima 30370, Thailand"
940,14.451138357534736,101.97483119975766,1,establishment|store|point_of_interest|grocery_or_supermarket|food,"Rural Rd, Tambon Udom Sap, Amphoe Wang Nam Khiao, Chang Wat Nakhon Ratchasima 30370, Thailand"
941,14.451138357534736,102.22559679307767,3,establishment|store|point_of_interest|car_repair,"Unnamed Road, Tambon Ban Mai, Amphoe Khon Buri, Chang Wat Nakhon Ratchasima 30250, Thailand"
942,14.451138357534736,102.30918532418434,1,supermarket|establishment|store|point_of_interest|grocery_or_supermarket|food,"Unnamed Road, Tambon Khok Krachai, Amphoe Khon Buri, Chang Wat Nakhon Ratchasima 30250, Thailand"
943,14.451138357534736,102.33704816788656,2,school|establishment|point_of_interest,"Unnamed Road, Tambon Tabaek Ban, Amphoe Khon Buri, Chang Wat Nakhon Ratchasima 30250, Thailand"
944,14.451138357534736,102.7271279797177,24,establishment|point_of_interest|hospital,"385 ม.8 ปะคำ Buri Ram 31220, Thailand"
947,14.424158710154524,101.38968612653252,1,local_government_office|establishment|point_of_interest,"Soi 3182, Tambon Mu Si, Amphoe Pak Chong, Chang Wat Nakhon Ratchasima, Thailand"
950,14.424158710154524,101.83543753034928,18,school|establishment|point_of_interest,"168 หมู่ 8, ตำบลวังน้ำเขียว อำเภอวังน้ำเขียว จังหวัดนครราชสีมา, 30370 30370, Thailand"
953,14.424158710154524,102.42048624785878,9,school|establishment|point_of_interest,"Unnamed Road, Tambon Soeng Sang, Amphoe Soeng Sang, Chang Wat Nakhon Ratchasima 30330, Thailand"
954,14.424158710154524,102.50406463607442,3,school|establishment|point_of_interest,"Unnamed Road, Tambon Kut Bot, Amphoe Soeng Sang, Chang Wat Nakhon Ratchasima 30330, Thailand"
955,14.424158710154524,102.53192409881285,10,school|establishment|point_of_interest,"ถนนราชสีมา - โชคชัย Tambon Kut Bot, Amphoe Soeng Sang, Chang Wat Nakhon Ratchasima 30330, Thailand"
956,14.424158710154524,102.58764302429006,2,school|establishment|point_of_interest,"Unnamed Road, Tambon Khok Mamuang, Amphoe Pakham, Chang Wat Buri Ram 31220, Thailand"
957,14.424158710154524,102.6155024870286,9,establishment|point_of_interest|hospital,"Unnamed Road, Tambon Khok Mamuang, Amphoe Pakham, Chang Wat Buri Ram 31220, Thailand"
958,14.424158710154524,102.78265926345989,1,school|establishment|point_of_interest,"Unnamed Road, Tambon Pakham, Amphoe Pakham, Chang Wat Buri Ram 31220, Thailand"
961,14.424158710154524,102.92195657715263,2,school|establishment|point_of_interest,"Unnamed Road, Tambon Lahan Sai, Amphoe Lahan Sai, Chang Wat Buri Ram 31170, Thailand"
962,14.397179062774113,101.72393388877686,1,establishment|store|point_of_interest|grocery_or_supermarket|food,"Unnamed Road, Tambon Wang Mi, Amphoe Wang Nam Khiao, Chang Wat Nakhon Ratchasima 30370, Thailand"
963,14.397179062774113,101.7517899775479,4,school|establishment|point_of_interest,"Unnamed Road, Tambon Wang Nam Khiao, Amphoe Wang Nam Khiao, Chang Wat Nakhon Ratchasima 30370, Thailand"
964,14.397179062774113,101.86321433263208,19,school|establishment|point_of_interest,"Thanon Kabin Buri - Pak Thong Chai, Tambon Wang Nam Khiao, Amphoe Wang Nam Khiao, Chang Wat Nakhon Ratchasima 30370, Thailand"
965,14.397179062774113,101.89107042140313,5,school|establishment|point_of_interest,"Unnamed Road, Tambon Thai Samakkhi, Amphoe Wang Nam Khiao, Chang Wat Nakhon Ratchasima 30370, Thailand"
966,14.397179062774113,101.91892651017417,2,supermarket|establishment|store|point_of_interest|grocery_or_supermarket|food,Unnamed Rd ตำบล ไทยสามัคคี อำเภอ วังน้ำเขียว จังหวัด นครราชสีมา 30370 Thailand
970,14.397179062774113,102.44819219682404,3,school|establishment|point_of_interest,"Unnamed Road, Tambon Soeng Sang, Amphoe Soeng Sang, Chang Wat Nakhon Ratchasima 30330, Thailand"
971,14.397179062774113,102.47604828559508,8,school|establishment|point_of_interest,"Unnamed Road, Tambon Soeng Sang, Amphoe Soeng Sang, Chang Wat Nakhon Ratchasima 30330, Thailand"
973,14.397179062774113,102.75460917330554,2,school|establishment|point_of_interest,"ถนนราชสีมา - โชคชัย Tambon Nong Trakhrong, Amphoe Lahan Sai, Chang Wat Buri Ram 31170, Thailand"
976,14.397179062774113,103.00531397224495,3,school|establishment|point_of_interest,"Unnamed Road, Tambon Nong Mai Ngam, Amphoe Ban Kruat, Chang Wat Buri Ram 31180, Thailand"
977,14.37019941539351,101.72386823450597,2,school|establishment|point_of_interest,"นม.3052 Tambon Wang Mi, Amphoe Wang Nam Khiao, Chang Wat Nakhon Ratchasima 30370, Thailand"
978,14.37019941539351,101.77957367809745,4,school|establishment|point_of_interest,"Unnamed Road, Tambon Wang Nam Khiao, Amphoe Wang Nam Khiao, Chang Wat Nakhon Ratchasima 30370, Thailand"
979,14.37019941539351,101.91883728707626,17,school|establishment|point_of_interest,"Unnamed Road, Tambon Thai Samakkhi, Amphoe Wang Nam Khiao, Chang Wat Nakhon Ratchasima 30370, Thailand"
980,14.37019941539351,102.39233355760427,1,pharmacy|health|establishment|store|point_of_interest,"Unnamed Road, Tambon Soeng Sang, Amphoe Soeng Sang, Chang Wat Nakhon Ratchasima 30250, Thailand"
981,14.37019941539351,102.6151553319703,2,establishment|store|point_of_interest|grocery_or_supermarket|food,"Unnamed Road, Tambon Khok Mamuang, Amphoe Pakham, Chang Wat Buri Ram 31220, Thailand"
982,14.37019941539351,102.64300805376604,5,establishment|point_of_interest|hospital,"Unnamed Road, Tambon Khok Mamuang, Amphoe Pakham, Chang Wat Buri Ram 31220, Thailand"
983,14.37019941539351,102.69871349735752,2,school|establishment|point_of_interest,"DPT., Tambon Hu Thamnop, Amphoe Pakham, Chang Wat Buri Ram 31220, Thailand"
984,14.37019941539351,102.72656621915326,5,school|establishment|point_of_interest,"Unnamed Road, Tambon Hu Thamnop, Amphoe Pakham, Chang Wat Buri Ram 31220, Thailand"
985,14.37019941539351,102.754418940949,2,establishment|point_of_interest|hospital,"Unnamed Road, Tambon Som Poi, Amphoe Non Din Daeng, Chang Wat Buri Ram 31170, Thailand"
991,14.37019941539351,103.00509343711099,3,establishment|store|point_of_interest,"Unnamed Road, Tambon Nong Mai Ngam, Amphoe Ban Kruat, Chang Wat Buri Ram 31180, Thailand"
992,14.343219768012718,101.27821292756494,7,establishment|store|point_of_interest,"Unnamed Road, Tambon Sarika, Amphoe Mueang Nakhon Nayok, Chang Wat Nakhon Nayok 26000, Thailand"
993,14.343219768012718,101.83520016373791,1,establishment|store|point_of_interest,"Unnamed Road, Tambon Bu Phram, Amphoe Na Di, Chang Wat Prachin Buri 25220, Thailand"
995,14.343219768012718,102.33648867629358,8,school|establishment|point_of_interest,"Unnamed Road, Tambon Lam Piek, Amphoe Khon Buri, Chang Wat Nakhon Ratchasima 30250, Thailand"
996,14.343219768012718,102.36433803810235,3,school|establishment|point_of_interest,"Rural Rd Nakhon Ratchasima 3138, Tambon Lam Piek, Amphoe Khon Buri, Chang Wat Nakhon Ratchasima 30250, Thailand"
997,14.343219768012718,102.39218739991088,1,pharmacy|health|establishment|store|point_of_interest,"Unnamed Road, Tambon Non Sombun, Amphoe Soeng Sang, Chang Wat Nakhon Ratchasima 30330, Thailand"
998,14.343219768012718,102.50358484714548,2,school|establishment|point_of_interest,"Unnamed Road, Tambon Sa Takhian, Amphoe Soeng Sang, Chang Wat Nakhon Ratchasima 30330, Thailand"
1002,14.343219768012718,102.86562655065791,5,establishment|point_of_interest|hospital,"Unnamed Road, Tambon Samrong Mai, Amphoe Lahan Sai, Chang Wat Buri Ram 31170, Thailand"
1003,14.343219768012718,102.89347591246656,4,establishment|point_of_interest|hospital,"Unnamed Road, Tambon Nong Waeng, Amphoe Lahan Sai, Chang Wat Buri Ram 31170, Thailand"
1004,14.343219768012718,102.94917463608385,5,school|establishment|point_of_interest,"บร.3067 Tambon Nong Waeng, Amphoe Lahan Sai, Chang Wat Buri Ram 31170, Thailand"
1005,14.316240120631731,101.27820119379976,23,establishment|point_of_interest|hospital,"111/4 Tambon.Sarika, Amphoe Mueng Nakhon Nayok 26000, Thailand"
1006,14.316240120631731,102.33634952841567,2,school|establishment|point_of_interest,"Unnamed Road, Tambon Lam Piek, Amphoe Khon Buri, Chang Wat Nakhon Ratchasima 30250, Thailand"
1008,14.316240120631731,102.41988755483283,1,school|establishment|point_of_interest,"Unnamed Road, Tambon Non Sombun, Amphoe Soeng Sang, Chang Wat Nakhon Ratchasima 30330, Thailand"
1009,14.316240120631731,102.4477335636384,11,school|establishment|point_of_interest,"Unnamed Road, Tambon Ban Rat, Amphoe Soeng Sang, Chang Wat Nakhon Ratchasima 30330, Thailand"
1010,14.316240120631731,102.47557957244408,2,school|establishment|point_of_interest,"Unnamed Road, Tambon Ban Rat, Amphoe Soeng Sang, Chang Wat Nakhon Ratchasima 30330, Thailand"
1015,14.316240120631731,102.83757768691794,3,establishment|point_of_interest|hospital,"Unnamed Road, Tambon Samrong Mai, Amphoe Lahan Sai, Chang Wat Buri Ram 31170, Thailand"
1016,14.316240120631731,102.86542369572362,1,establishment|store|point_of_interest,"Unnamed Road, Tambon Samrong Mai, Amphoe Lahan Sai, Chang Wat Buri Ram 31170, Thailand"
1017,14.316240120631731,102.8932697045293,4,school|establishment|point_of_interest,"Unnamed Road, Tambon Nong Waeng, Amphoe Lahan Sai, Chang Wat Buri Ram 31170, Thailand"
1018,14.316240120631731,102.92111571333498,8,establishment|point_of_interest|hospital,"Unnamed Road, Tambon Nong Waeng, Amphoe Lahan Sai, Chang Wat Buri Ram 31170, Thailand"
1022,14.262280825869185,101.19465982833515,8,school|establishment|point_of_interest,"ถนนพรหมมณี-เขาสลักหิน1 Tambon Phrommani, Amphoe Mueang Nakhon Nayok, Chang Wat Nakhon Nayok 26000, Thailand"
1023,14.262280825869185,101.22249915207135,6,establishment|point_of_interest|hospital,"ถนนเขาทุเรียน-เขาน้อย Tambon Khao Phra, Amphoe Mueang Nakhon Nayok, Chang Wat Nakhon Nayok 26000, Thailand"
1024,14.262280825869185,101.27817779954376,27,establishment|point_of_interest|hospital,"Unnamed Road, Tambon Sarika, Amphoe Mueang Nakhon Nayok, Chang Wat Nakhon Nayok 26000, Thailand"
1026,14.262280825869185,102.94853722371693,4,establishment|point_of_interest|hospital,"Unnamed Road, Tambon Nong Waeng, Amphoe Lahan Sai, Chang Wat Buri Ram 31170, Thailand"
1027,14.262280825869185,102.97637654745313,5,school|establishment|point_of_interest,"Unnamed Road, Tambon Nong Waeng, Amphoe Lahan Sai, Chang Wat Buri Ram 31170, Thailand"
1030,14.235301178487626,102.69780171377352,7,school|establishment|point_of_interest,"Thana Way St, Tambon Lam Nang Rong, Amphoe Non Din Daeng, Chang Wat Buri Ram 31260, Thailand"
1035,14.208321531105877,102.64195516410632,2,establishment|store|point_of_interest,"Moo 3, Tambon Lam Nang Rong, Amphoe Non Din Daeng, Buri Ram, 31260, Thailand"
1039,14.181341883723938,101.41728963320259,2,establishment|point_of_interest|hospital,"ปจ.2031 Tambon Noen Hom, Amphoe Mueang Prachin Buri, Chang Wat Prachin Buri 25000, Thailand"
1040,14.181341883723938,101.52860702685541,1,establishment|store|point_of_interest|food,"Unnamed Road, Tambon Nong Kaeo, Amphoe Prachantakham, Chang Wat Prachin Buri 25130, Thailand"
1041,14.181341883723938,102.66961031179699,3,establishment|point_of_interest|hospital,"Unnamed Road, Tambon Lam Nang Rong, Amphoe Non Din Daeng, Chang Wat Buri Ram 31260, Thailand"
1044,14.15436223634181,101.47291356435824,1,establishment|store|point_of_interest|grocery_or_supermarket|food,"Unnamed Road, Tambon Pho Ngam, Amphoe Prachantakham, Chang Wat Prachin Buri 25130, Thailand"
1045,14.15436223634181,101.52856563882085,3,establishment|point_of_interest|hospital,"Unnamed Road, Tambon Nong Kaeo, Amphoe Prachantakham, Chang Wat Prachin Buri 25130, Thailand"
1046,14.15436223634181,101.77899997390261,4,establishment|point_of_interest|hospital,"Unnamed Road, Tambon Na Di, Amphoe Na Di, Chang Wat Prachin Buri 25220, Thailand"
1047,14.15436223634181,101.89030412282784,3,school|establishment|point_of_interest,"Unnamed Road, Tambon Thung Pho, Amphoe Na Di, Chang Wat Prachin Buri 25220, Thailand"
1049,14.15436223634181,102.94769353761751,1,school|establishment|point_of_interest,"Unnamed Road, Cambodia"
1050,14.127382588959494,101.27811974068754,26,establishment|point_of_interest|hospital,"34, Moo 2, Tambon Pak Phli, Amphoe Pak Phli, Nakhon Nayok, 26130, Thailand"
1054,14.127382588959494,101.50070160473308,26,establishment|point_of_interest|hospital,"Unnamed Road, Tambon Pho Ngam, Amphoe Prachantakham, Chang Wat Prachin Buri 25130, Thailand"
1055,14.127382588959494,101.7232834687785,3,school|establishment|point_of_interest,"Talad, Tambon Saphan Hin, Amphoe Na Di, Chang Wat Prachin Buri 25220, Thailand"
1056,14.127382588959494,101.80675166779554,1,establishment|home_goods_store|store|point_of_interest,"Unnamed Road, Tambon Na Di, Amphoe Na Di, Chang Wat Prachin Buri 25220, Thailand"
1057,14.127382588959494,102.8640155220113,4,school|establishment|point_of_interest,"Unnamed Road, Tambon Thap Thai, Amphoe Ta Phraya, Chang Wat Sa Kaeo 27180, Thailand"
